{"type":"FeatureCollection","name":"D:\\Desktop\\HatYai Project26\\river.geojson","crs":{"type":"name","properties":{"name":"urn:ogc:def:crs:OGC:1.3:CRS84"}},"features":[{"type":"Feature","properties":{"LENGTH":"6.35 km","BEARING":"329° 59' 21.612\"","SINUOSITY":"1.078248","source_id":"river-1","source_crs":"EPSG:32647"},"geometry":{"type":"LineString","coordinates":[[100.462238,6.9806561],[100.461524,6.9812804],[100.4609955,6.9814998],[100.4609365,6.9825575],[100.4607536,6.9838022],[100.4590756,6.9847715],[100.4583604,6.9849915],[100.4576462,6.9855846],[100.4574613,6.9861762],[100.4573065,6.9864566],[100.4566539,6.9868007],[100.4560006,6.9869583],[100.4554412,6.9872399],[100.4546033,6.9880823],[100.4501347,6.9926371],[100.4471246,6.9956945],[100.446846,6.996193],[100.4466305,6.9970023],[100.4461669,6.9980613],[100.4457046,6.9995868],[100.4451486,7.0009881],[100.4443129,7.0025769],[100.4435129,7.0056275],[100.4430546,7.0084282],[100.4420746,7.0136877],[100.4419223,7.0147767],[100.4420504,7.0159583],[100.4421766,7.0164866],[100.4423028,7.0170461],[100.4419939,7.0178246],[100.4415282,7.0182304],[100.4401292,7.0188568],[100.4386996,7.0196387],[100.4376734,7.0200151],[100.4371776,7.0207631],[100.4363718,7.0219475],[100.4360635,7.0229438],[100.4357589,7.0251219],[100.4355772,7.026771],[100.4355772,7.026771]]}},{"type":"Feature","properties":{"LENGTH":"13.21 km","BEARING":"64° 00' 22.341\"","SINUOSITY":"7.0183769","source_id":"river-2","source_crs":"EPSG:32647"},"geometry":{"type":"LineString","coordinates":[[100.4362621,7.0267689],[100.4367174,7.0229729],[100.436947,7.022281],[100.4372774,7.0217132],[100.4377321,7.0211036],[100.438201,7.0206183],[100.4388227,7.0202985],[100.4402319,7.0196306],[100.4413926,7.0191156],[100.4420003,7.0187681],[100.4424694,7.0183519],[100.4428544,7.0175628],[100.4429768,7.0168574],[100.4429336,7.0163046],[100.4427797,7.015766],[100.4426396,7.0151996],[100.4425828,7.0147298],[100.4426912,7.0139692],[100.4429774,7.0125721],[100.4432358,7.011106],[100.4440785,7.006196],[100.444847,7.0030211],[100.4457449,7.0014321],[100.4462703,7.0002175],[100.446557,6.9989517],[100.4469481,6.9979137],[100.4471546,6.9975813],[100.4472976,6.9968344],[100.4476478,6.9960039],[100.4483306,6.9953383],[100.4504618,6.9932582],[100.4531719,6.990492],[100.4551581,6.988516],[100.455965,6.9877256],[100.4567525,6.9873706],[100.4582656,6.9867854],[100.4588047,6.9866386],[100.4596959,6.9862418],[100.4602966,6.9858875],[100.4609196,6.9860307],[100.4611293,6.986735],[100.4612585,6.9882276],[100.4614276,6.9892224],[100.4615965,6.9901342],[100.4620964,6.990734],[100.4626998,6.9912297],[100.4628671,6.9916439],[100.4624743,6.9921221],[100.4619775,6.9925383],[100.4617504,6.9929122],[100.4611128,6.9947597],[100.4608661,6.9955276],[100.4607453,6.9967099],[100.460479,6.9978512],[100.4603145,6.9983286],[100.460192,6.9989718],[100.4599445,6.9994909],[100.4595092,6.9996582],[100.4593218,6.9994307],[100.4596938,6.9989319],[100.4599402,6.9981017],[100.4597513,6.9973973],[100.4594181,6.9970458],[100.4584006,6.9968623],[100.4577577,6.9970095],[100.4575311,6.9975493],[100.4577196,6.9981086],[100.457804,6.9985438],[100.4577427,6.9988342],[100.4574737,6.9991046],[100.4570174,6.999189],[100.4567897,6.9993971],[100.4566064,7.0005173],[100.4564014,7.0013059],[100.4561544,7.0019702],[100.4557204,7.0025521],[100.4554107,7.0030715],[100.455205,7.0036734],[100.4549368,7.0041719],[100.4547094,7.0044837],[100.4540458,7.0046516],[100.45361,7.0046529],[100.4533398,7.0045086],[100.4528624,7.0045101],[100.4524691,7.0048223],[100.4516832,7.0056957],[100.451436,7.0063185],[100.4510457,7.0076053],[100.4507999,7.0086636],[100.4508641,7.0092854],[100.4509485,7.0097206],[100.4512817,7.0100928],[100.4519257,7.0102982],[100.4524452,7.0105039],[100.4527157,7.0107519],[100.452883,7.0111454],[100.4528017,7.0116847],[100.4526987,7.0119339],[100.4524083,7.011997],[100.4519301,7.0117289],[100.4514523,7.0115852],[100.4508919,7.0115662],[100.4504159,7.0120031],[100.4503971,7.0126253],[100.4507317,7.0134329],[100.4512527,7.0141363],[100.4518575,7.0150675],[100.4521076,7.0154193],[100.4521507,7.0159375],[100.4519446,7.0164151],[100.451552,7.0169554],[100.4514496,7.0174119],[100.4516173,7.0179298],[100.4518066,7.0187379],[100.452018,7.0199813],[100.4521651,7.0205822],[100.4522288,7.0210382],[100.4521052,7.0213289],[100.451815,7.0214542],[100.4512551,7.0216218],[100.4506541,7.0218932],[100.4501988,7.0223093],[100.4500964,7.0227451],[100.4501406,7.0236366],[100.4504349,7.0248176],[100.4509146,7.0255833],[100.4517277,7.0267627],[100.4523115,7.0276318],[100.4527084,7.0284392],[100.4530633,7.0291224],[100.4532101,7.0295988],[100.4531705,7.030221],[100.452883,7.0312172],[100.4528015,7.0316944],[100.4527406,7.0321508],[100.4524515,7.0326078],[100.4519971,7.033335],[100.4515744,7.0342279],[100.4515744,7.0342279]]}},{"type":"Feature","properties":{"LENGTH":"11.754 km","BEARING":"146° 28' 46.896\"","SINUOSITY":"1.7365982","source_id":"river-3","source_crs":"EPSG:32647"},"geometry":{"type":"LineString","coordinates":[[100.4522456,7.0342535],[100.4525341,7.033589],[100.453153,7.0323845],[100.4535634,7.0308903],[100.4538091,7.0297905],[100.4537856,7.028899],[100.4533675,7.0279464],[100.4527214,7.0270776],[100.4514706,7.0252982],[100.4509906,7.0244495],[100.450635,7.0235383],[100.4505288,7.0227714],[100.4507559,7.0223767],[100.4518752,7.0219171],[100.4526003,7.0215001],[100.452764,7.0207324],[100.4525323,7.0196341],[100.4522787,7.0181834],[100.4519649,7.017355],[100.4521295,7.0168983],[100.4525633,7.0162542],[100.4526334,7.0154245],[100.451945,7.014307],[100.451153,7.0132312],[100.450881,7.0125063],[100.4510456,7.0120288],[100.4518553,7.0121508],[100.4523816,7.0123219],[100.4529628,7.0123339],[100.4535025,7.0123876],[100.4538895,7.0122481],[100.4540128,7.0118331],[100.453721,7.0114331],[100.4532769,7.0110197],[100.452985,7.0105645],[100.4526243,7.0102753],[100.4522224,7.0100553],[100.4516961,7.0098773],[100.451307,7.0093255],[100.4512361,7.008759],[100.4513717,7.0078877],[100.4516599,7.0071127],[100.451921,7.0065313],[100.4522229,7.0057286],[100.4527468,7.0051325],[100.4532998,7.0049926],[100.4543927,7.0049616],[100.4549733,7.0047939],[100.4552211,7.0043922],[100.4557502,7.0032432],[100.4561218,7.00262],[100.4564933,7.0019553],[100.4568787,7.0013044],[100.4570567,7.0007233],[100.4570959,6.9999629],[100.4573993,6.999644],[100.4579518,6.9993658],[100.4582276,6.999047],[100.4582811,6.9984663],[100.458127,6.9978585],[100.4580564,6.9973887],[100.4583464,6.9972219],[100.458983,6.9972752],[100.4593856,6.9977302],[100.4594015,6.998366],[100.4590856,6.9991135],[100.4588654,6.999515],[100.4589637,6.9999709],[100.4592547,7.0001082],[100.4597663,7.0000237],[100.4603601,6.9996486],[100.4604963,6.9989709],[100.4607017,6.998279],[100.4609209,6.9975734],[100.4612627,6.9962591],[100.4615355,6.9950141],[100.4618637,6.9937551],[100.4621108,6.9931461],[100.4625389,6.9928821],[100.4631193,6.9926868],[100.4635333,6.9923261],[100.4636699,6.9917727],[100.4634886,6.9913033],[100.4629893,6.9909178],[100.4626355,6.9905733],[100.4623994,6.9902838],[100.4623009,6.9897726],[100.4622303,6.9893166],[100.4620759,6.9885983],[100.4620745,6.9881421],[100.4621974,6.9876164],[100.4626128,6.9877257],[100.4630568,6.9881529],[100.46357,6.988566],[100.4638602,6.9884545],[100.4636651,6.9879989],[100.4631244,6.987655],[100.4626937,6.987062],[100.4624003,6.9861505],[100.4621905,6.9854047],[100.4621615,6.9849901],[100.4629498,6.9848909],[100.4638207,6.984667],[100.4642061,6.9840023],[100.4645233,6.9836971],[100.4650636,6.9839166],[100.4654506,6.983791],[100.4657811,6.9833062],[100.4663341,6.9831939],[100.4666819,6.9837872],[100.4670023,6.9845189],[100.4669085,6.9854868],[100.4668001,6.986206],[100.4669122,6.9866618],[100.4673554,6.9868125],[100.4681439,6.9867824],[100.4687255,6.9869741],[100.4690034,6.9873464],[100.469184,6.9875671],[100.4695164,6.9877043],[100.4699731,6.9877305],[100.4708309,6.9877416],[100.4714118,6.9876845],[100.4717705,6.9873655],[100.4720047,6.9870468],[100.4725988,6.9867961],[100.4731385,6.9868497],[100.4734996,6.9872909],[100.4738606,6.9876907],[100.4744003,6.9877305],[100.474926,6.987715],[100.4754229,6.987354],[100.4760178,6.9873384],[100.4763217,6.9871992],[100.4764725,6.9867563],[100.4767213,6.9866864],[100.4771228,6.986782],[100.4773176,6.9871408],[100.4774914,6.9874029],[100.4780601,6.9878711],[100.4784482,6.988091],[100.4787661,6.9879933],[100.4789451,6.9877162],[100.4794701,6.9875072],[100.4805758,6.9871443],[100.481585,6.9869062],[100.4818616,6.9868777],[100.4824426,6.986862],[100.4829274,6.9870264],[100.483163,6.9871639],[100.4834944,6.9869693],[100.4834515,6.9865133],[100.4834214,6.9857531],[100.4835718,6.9851858],[100.4839578,6.9847423],[100.4842061,6.9845203],[100.4842882,6.9842159],[100.4846337,6.9841043],[100.4849799,6.9841999],[100.4853807,6.9840743],[100.4857118,6.9837967],[100.4859181,6.983409],[100.4860703,6.9832304]]}},{"type":"Feature","properties":{"LENGTH":"4.132 km","BEARING":"264° 20' 40.178\"","SINUOSITY":"1.6366295","source_id":"river-4","source_crs":"EPSG:32647"},"geometry":{"type":"LineString","coordinates":[[100.4857511,6.9831659],[100.4855712,6.9833098],[100.4855515,6.9835556],[100.4854906,6.9837565],[100.4853024,6.983884],[100.4850406,6.9840364],[100.4848027,6.9840085],[100.4846261,6.9838903],[100.4844169,6.9838582],[100.4841343,6.9839164],[100.4838849,6.9841384],[100.4836362,6.9845487],[100.4834031,6.9847297],[100.4832234,6.9849596],[100.4830684,6.9851976],[100.4830321,6.985378],[100.4831642,6.9856766],[100.4832304,6.9858852],[100.4832126,6.9860901],[100.4832095,6.9864055],[100.483231,6.9866962],[100.48317,6.9868561],[100.483076,6.9869588],[100.4829157,6.9868119],[100.482784,6.9866649],[100.482505,6.9865797],[100.4822503,6.9864003],[100.482037,6.98636],[100.4817707,6.9863936],[100.4813858,6.9865259],[100.4810297,6.9867236],[100.4806448,6.9868395],[100.4800224,6.9870626],[100.479664,6.987158],[100.4793363,6.9872368],[100.478931,6.9873896],[100.4786731,6.9875215],[100.478403,6.9876493],[100.4782186,6.9876663],[100.4780661,6.9874292],[100.4779099,6.9872945],[100.4778436,6.9870613],[100.4778597,6.9869506],[100.4777159,6.9868651],[100.4775764,6.9868082],[100.4773996,6.9866613],[100.4771818,6.9864858],[100.4770254,6.9862733],[100.476775,6.9861676],[100.4763488,6.9862017],[100.4760666,6.9864115],[100.4758627,6.9867603],[100.4756052,6.9869905],[100.4752448,6.9871104],[100.4749545,6.9873284],[100.4746883,6.9874234],[100.4744874,6.9873913],[100.4743071,6.9874123],[100.4741186,6.9874539],[100.4739012,6.9874136],[100.4737654,6.9872215],[100.473728,6.9870619],[100.4735201,6.9867922],[100.4732696,6.9866373],[100.4729291,6.9865524],[100.4726012,6.9865698],[100.4722491,6.9867061],[100.4718071,6.9869491],[100.4715951,6.9873061],[100.4713907,6.987487],[100.4710794,6.9875944],[100.4707104,6.9875505],[100.4705092,6.9874528],[100.4701973,6.9873269],[100.4698282,6.9872911],[100.469513,6.9874355],[100.4692545,6.9873421],[100.4691022,6.987146],[100.4688636,6.9868928],[100.4685594,6.986607],[100.4682149,6.9865425],[100.4677271,6.9865686],[100.4674481,6.9864917],[100.4672099,6.9863286],[100.4670945,6.9861405],[100.4671306,6.9858742],[100.4672731,6.9855625],[100.4673705,6.9852427],[100.4673528,6.9848413],[100.467253,6.9843706],[100.4670628,6.9838633],[100.4668194,6.9833521],[100.4664905,6.9830664],[100.466236,6.982932],[100.4658877,6.9829823],[100.4655517,6.9830489],[100.46529,6.983234],[100.4652084,6.9833735],[100.4649914,6.983452],[100.4647372,6.9834282],[100.4644299,6.9834783],[100.4641599,6.9836594],[100.4639231,6.9839591],[100.4635267,6.9843617],[100.4631336,6.9845063],[100.4624677,6.9845616],[100.4620903,6.9844891],[100.4619134,6.9842971],[100.4617935,6.9839452],[100.4617265,6.9835031],[100.4617265,6.9835031],[100.4616733,6.982551],[100.4617919,6.9821082],[100.4625468,6.9816728],[100.4630149,6.9809156]]}}]}