{"type": "FeatureCollection", "name": "Thiessen_X174", "features": [{"type": "Feature", "properties": {"source_station": "X.174", "rain_station": "580471", "source_code_mismatch": false, "latitude": 6.986368, "longitude": 100.481867, "area_km2": 8.5447, "weight": 0.0804638}, "geometry": {"type": "Polygon", "coordinates": [[[100.50978582156472, 6.957668539185647], [100.50945269702396, 6.958001663726577], [100.50878644794227, 6.959048626569029], [100.50831055574105, 6.959619697210485], [100.50745394977906, 6.960285946292174], [100.50564555941469, 6.96085701693346], [100.50512207799329, 6.9610949630341565], [100.50459859657207, 6.961808801335849], [100.50393234749038, 6.962046747436375], [100.50271882237746, 6.96216572048678], [100.50182652450025, 6.962344180062075], [100.50075576704756, 6.962701099213007], [100.49920911739389, 6.9636528836154525], [100.49790041384074, 6.964426208442205], [100.49647273723713, 6.965496965894829], [100.49516403368398, 6.966032344621283], [100.49361738403007, 6.966746182922975], [100.49248714005239, 6.967281561649202], [100.49076203082325, 6.9676979673251935], [100.48909640811911, 6.968054886476125], [100.48778770456596, 6.967816940375656], [100.4855867031356, 6.967341048174433], [100.48499183788397, 6.967460021224667], [100.48433748610745, 6.967995399950951], [100.48398056695652, 6.969006670878571], [100.48296929602907, 6.969423076554563], [100.47815088749218, 6.971148185783704], [100.47825796323764, 6.971528899544637], [100.47868626621863, 6.972885192318017], [100.47968563984108, 6.975526394034375], [100.480899164954, 6.9783817472414285], [100.48154161942563, 6.982593393221862], [100.48168438708592, 6.986805039202068], [100.4822946941502, 6.987502532989936], [100.48530535963937, 6.986311262472725], [100.48659026858252, 6.98507394274975], [100.4895883894498, 6.981361983580371], [100.49101606605325, 6.979791539316693], [100.49315758095855, 6.977412078310863], [100.49501356054316, 6.976031990927481], [100.49977248255482, 6.97460431432404], [100.50562595662916, 6.975270563405729], [100.50738675777336, 6.975698866386722], [100.50995657565966, 6.977459667531036], [100.51157460914374, 6.978934933354708], [100.51357335638863, 6.980600556058448], [100.51600040661447, 6.982599303303687], [100.51601502092211, 6.9826473217435705], [100.5163335311554, 6.9836938553663686], [100.51699978023692, 6.984978764309517], [100.51785638619907, 6.985692602611039], [100.52109245316706, 6.98750099297564], [100.52456646623557, 6.988785901918789], [100.52765976554309, 6.988405188157799], [100.52819395018028, 6.988405188157799], [100.5217943312989, 6.97007331993233], [100.50999378840534, 6.957599216905447], [100.50978582156472, 6.957668539185647]]]}}, {"type": "Feature", "properties": {"source_station": "580410", "rain_station": "580411", "source_code_mismatch": true, "latitude": 6.931111, "longitude": 100.540278, "area_km2": 23.226, "weight": 0.21871478}, "geometry": {"type": "Polygon", "coordinates": [[[100.5808296532004, 6.878029421418205], [100.58025858255917, 6.8789431344443415], [100.57911644127626, 6.880313703983802], [100.57820272824995, 6.881627166458941], [100.57631819513341, 6.883169057190628], [100.57477630440167, 6.883968556088689], [100.57386259137536, 6.883911449024538], [100.57289177128507, 6.883568806639687], [100.57180673706637, 6.883511699575536], [100.57072170284778, 6.883340378383252], [100.56912270505177, 6.883226164254779], [100.56763792138418, 6.883169057190628], [100.56638156597302, 6.8832832713189305], [100.56535363881858, 6.883568806639687], [100.56438281872812, 6.8840256631528405], [100.56352621276613, 6.884082770216935], [100.56266960680398, 6.8840256631528405], [100.56169878671352, 6.8841969843452375], [100.56078507368721, 6.884254091409389], [100.55975714653283, 6.884825162050845], [100.55908613852915, 6.885453339756225], [100.55872921937839, 6.886095794227913], [100.55844368405769, 6.886595481039137], [100.55758707809554, 6.887880389982286], [100.55687323979379, 6.88902253126497], [100.55658770447309, 6.890307440208119], [100.55673047213332, 6.890878510849575], [100.55715877511454, 6.891520965321263], [100.55794399724647, 6.891877884472024], [100.5585150678877, 6.89244895511348], [100.55915752235938, 6.893020025754879], [100.55987136066108, 6.893733864056628], [100.56051381513277, 6.894661853848845], [100.56129903726469, 6.895304308320476], [100.5623697947172, 6.8959467627919935], [100.56351193600005, 6.896803368754149], [100.56408300664151, 6.897659974716305], [100.5646540772828, 6.8984451968480585], [100.56501099643373, 6.899444570470678], [100.56501099643373, 6.9012291662250504], [100.5646540772828, 6.902157156017267], [100.56372608749058, 6.902942378149191], [100.56315501684912, 6.9036562164509405], [100.56272671386813, 6.904941125394089], [100.56272671386813, 6.9061546505070055], [100.56258394620767, 6.907368175619922], [100.56208425939644, 6.911080134789131], [100.56144180492498, 6.9123650437322794], [100.56087073428353, 6.9138641041659525], [100.56022827981207, 6.9155773160900935], [100.56029966364207, 6.920288648881694], [100.56051381513277, 6.921430790164436], [100.56058519896283, 6.9225729314472915], [100.5603710474723, 6.9233581535792155], [100.55972859300084, 6.924785830182657], [100.5585150678877, 6.92628489061633], [100.55830091639723, 6.926713193597493], [100.5575156942653, 6.927855334880178], [100.55658770447309, 6.928426405521634], [100.55537417936017, 6.92899747616309], [100.5541606542472, 6.929425779144083], [100.5523046746626, 6.929925465955307], [100.5513053010402, 6.9302823851062385], [100.54959208911583, 6.930496536596706], [100.54852133166338, 6.930924839577699], [100.54766472570122, 6.931353142558692], [100.54702227122971, 6.931781445539912], [100.54602289760709, 6.932709435332072], [100.54388138270195, 6.934065728105452], [100.54309616057003, 6.934636798746908], [100.5425964737588, 6.935207869388194], [100.54209678694758, 6.935707556199418], [100.54181125162688, 6.936207243010642], [100.54145433247595, 6.936635545991805], [100.54102602949496, 6.937206616633034], [100.54052634268373, 6.937920454934954], [100.5401694235328, 6.9389198285574025], [100.53988388821222, 6.939490899198631], [100.5388845145896, 6.940347505160787], [100.5381706762879, 6.941275494953004], [100.53752822181644, 6.9423462524056845], [100.53702853500522, 6.943345626028133], [100.53695715117499, 6.944202231990289], [100.53695715117499, 6.944773302631688], [100.53667161585423, 6.945701292423905], [100.5352460543271, 6.948150695162326], [100.53491292978634, 6.948816944244015], [100.53457980524541, 6.949102479564715], [100.53424668070471, 6.949578371765938], [100.53410391304442, 6.95005426396699], [100.5336280208432, 6.950577745388387], [100.5331997178622, 6.950863280709086], [100.5326762364408, 6.950863280709086], [100.53205757657935, 6.951006048369379], [100.53148650593789, 6.951101226809612], [100.53072507841614, 6.951434351350372], [100.53015400777468, 6.951624708230838], [100.52958293713328, 6.952243368092297], [100.52901186649183, 6.95267167107346], [100.52829802819014, 6.953099974054453], [100.52796490364938, 6.953575866255676], [100.52767936832862, 6.953956580016666], [100.52739383300792, 6.954289704557368], [100.52701311924693, 6.954860775198824], [100.52639445938547, 6.95543184584028], [100.52582338874402, 6.955860148821273], [100.52510955044232, 6.955860148821273], [100.52415776603993, 6.955669791940807], [100.52301562475719, 6.95543184584028], [100.52225419723527, 6.95543184584028], [100.52139759127311, 6.955527024280514], [100.52063616375136, 6.955574613500573], [100.51992232544967, 6.955907738041276], [100.51925607636798, 6.956098094921799], [100.51849464884606, 6.956907111663725], [100.51820911352536, 6.9577161284058775], [100.5175904536639, 6.958001663726577], [100.51706697224262, 6.95776371762588], [100.51659108004145, 6.957335414644888], [100.51616277706046, 6.956907111663725], [100.51535376031848, 6.956478808682732], [100.51483027889708, 6.956288451802266], [100.51454474357638, 6.956336041022496], [100.51411644059539, 6.9567643440034885], [100.51364054839416, 6.957097468544191], [100.51316465619294, 6.957287825424714], [100.51264117477172, 6.957287825424714], [100.5116893903695, 6.957383003864948], [100.51064242752688, 6.957383003864948], [100.50999378840534, 6.957599216905447], [100.5217943312989, 6.97007331993233], [100.59763924256804, 6.905401334031797], [100.59751915436692, 6.905137139989222], [100.59775710046745, 6.904090177146713], [100.59789986812785, 6.903519106505314], [100.59794745734791, 6.903138392744324], [100.59789986812785, 6.902329376002399], [100.59766192202716, 6.901948662241409], [100.59737638670646, 6.901472770040243], [100.59666254840477, 6.900996877839191], [100.59599629932308, 6.900616164078258], [100.59509210414086, 6.900616164078258], [100.59414031973864, 6.9003306287575015], [100.59356924909719, 6.899711968896042], [100.59347407065695, 6.899093309034413], [100.59342648143678, 6.8982367030722], [100.59352165987701, 6.897475275550505], [100.59371201675748, 6.896809026468816], [100.59375960597771, 6.896095188166896], [100.59375960597771, 6.894762690003745], [100.59366442753742, 6.8922880505576245], [100.59366442753742, 6.891050730834706], [100.59371201675748, 6.890289303312784], [100.59390237363795, 6.889432697350799], [100.59404514129841, 6.888528502168413], [100.59399755207818, 6.887481539325961], [100.59328371377649, 6.887243593225435], [100.59252228625456, 6.887100825564971], [100.59114219887118, 6.8870056471245675], [100.58947657616721, 6.886910468684505], [100.58866755942512, 6.886720111804038], [100.5882868456643, 6.886624933363805], [100.58752541814238, 6.886624933363805], [100.58662122296022, 6.886624933363805], [100.58562184933777, 6.886482165703512], [100.58509836791637, 6.886339398043049], [100.58462247571532, 6.886101451942579], [100.58447970805486, 6.88572073818159], [100.58438452961462, 6.8850068998798974], [100.58462247571532, 6.883959937037218], [100.58462247571532, 6.883246098735526], [100.58447970805486, 6.8827226173143], [100.58381345897317, 6.8821991358930745], [100.58295685301118, 6.881723243691852], [100.5820050686088, 6.881294940710859], [100.58138640874733, 6.880723870069403], [100.58100569498635, 6.880152799428004], [100.58095810576634, 6.878867890484855], [100.58095810576634, 6.878011284522643], [100.58096640235038, 6.877920022098181], [100.5808296532004, 6.878029421418205]]]}}, {"type": "Feature", "properties": {"source_station": "580541", "rain_station": "580232", "source_code_mismatch": true, "latitude": 6.957979, "longitude": 100.563188, "area_km2": 74.4224, "weight": 0.70082143}, "geometry": {"type": "Polygon", "coordinates": [[[100.5287067283856, 6.988405188157799], [100.5295157451277, 6.988357598937796], [100.53056270797015, 6.989119026459548], [100.5315620815926, 6.989071437239488], [100.53308493663644, 6.989404561780248], [100.53394154259843, 6.988928669578854], [100.53565475452274, 6.988928669578854], [100.53660653892501, 6.988690723478555], [100.5378438586481, 6.988119652837099], [100.5382721616291, 6.987738939075939], [100.53860528616985, 6.98750099297564], [100.53870046461009, 6.9871202792146505], [100.53884323227055, 6.986882333113954], [100.53912876759125, 6.986882333113954], [100.53936671369178, 6.9871202792146505], [100.53950948135207, 6.988024474396866], [100.5401281412137, 6.990118400081769], [100.54022331965393, 6.991260541364852], [100.54146063937691, 6.992355093427534], [100.5426979591, 6.993021342509223], [100.54441117102414, 6.993068931729226], [100.54560090152705, 6.993259288609522], [100.54731411345125, 6.993973126911442], [100.54768160622842, 6.994203878190149], [100.54780941402709, 6.994411134079712], [100.54893214693516, 6.994972500533834], [100.55026464509848, 6.99587669571622], [100.55178750014215, 6.9968760693386685], [100.55388142582729, 6.9976374968604205], [100.55492838866991, 6.99792303218112], [100.55578499463206, 6.998351335162113], [100.55645124371358, 6.998779638143105], [100.55697472513498, 6.9996362441050906], [100.55711749279527, 7.000492850067417], [100.55740302811597, 7.001777759010622], [100.55773615265673, 7.0024440080922545], [100.5581644556379, 7.003538560154766], [100.55849758017865, 7.004252398456686], [100.55849758017865, 7.005061415198611], [100.55825963407813, 7.007155340883742], [100.55830064135927, 7.007411636391396], [100.55844999095848, 7.008345071386657], [100.55854516939871, 7.009154088128412], [100.55892588315965, 7.009915515650334], [100.56087704118448, 7.011343192254117], [100.56301855608979, 7.012723279637157], [100.56387516205177, 7.0129612257380245], [100.56454141113346, 7.012770868857558], [100.56516007099498, 7.012437744316799], [100.56634980149789, 7.012152208996099], [100.56763471044104, 7.011771495235109], [100.56859901957455, 7.011892453872008], [100.56877288595541, 7.011914262895402], [100.57049799518472, 7.011914262895402], [100.57252053703962, 7.011944006157989], [100.5735020647046, 7.012033235945637], [100.57475128173257, 7.012568614672091], [100.57543537677185, 7.012925533822852], [100.57600049876072, 7.012955277085439], [100.57668459379983, 7.012955277085439], [100.57733894557651, 7.012687587722326], [100.57796355409056, 7.012152208996099], [100.57873687891748, 7.0115870870072285], [100.57936148743153, 7.011200424593653], [100.5803132718338, 7.011140938068479], [100.58114608318573, 7.011140938068479], [100.5815327455993, 7.0115573437446415], [100.58227632716364, 7.014739872839812], [100.58242255432395, 7.016143653579661], [100.58242504347646, 7.0161675494434235], [100.58254401652675, 7.017000360795407], [100.58290093567751, 7.017476252996403], [100.58373374702967, 7.017743942359687], [100.58471527469447, 7.017862915409978], [100.58629166761096, 7.017922401935209], [100.58763011442676, 7.017981888460213], [100.58899830450497, 7.018100861510675], [100.58995008890736, 7.0182793210861405], [100.59066392720905, 7.018695726762132], [100.59158596834885, 7.019320335276177], [100.59241877970084, 7.020153146628161], [100.59325159105299, 7.020748011879618], [100.5944413215559, 7.021342877131076], [100.59521464638283, 7.021551079968958], [100.59628540383528, 7.022145945220416], [100.5969992421372, 7.022651580684226], [100.59750487760084, 7.023097729622805], [100.59827820242776, 7.023603365086615], [100.59893255420445, 7.023900797712372], [100.59997356839449, 7.024346946650951], [100.60108001776217, 7.0244956629638295], [100.60207939138462, 7.023995976152605], [100.60272184585625, 7.023353521680917], [100.603483273378, 7.022068612737598], [100.60362604103847, 7.021640309756606], [100.6040067547994, 7.021354774436077], [100.60491094998162, 7.021354774436077], [100.606291037365, 7.0212595959958435], [100.60752835708797, 7.021307185215676], [100.60909880135182, 7.020878882234683], [100.61000299653404, 7.020402990033688], [100.61009817497427, 7.0195463840717025], [100.6099078180938, 7.01807111824786], [100.6099078180938, 7.017214512285875], [100.60995540731398, 7.016548263204015], [100.6101933534145, 7.015977192562957], [100.61057406717549, 7.015548889581794], [100.61066924561572, 7.015025408160511], [100.60995540731398, 7.014549515959345], [100.60871808759089, 7.014073623758122], [100.60781389240867, 7.0134073746766035], [100.60614826970459, 7.011218270551296], [100.60476818232115, 7.009790593947685], [100.6031977380573, 7.006982829960862], [100.60200800755439, 7.00550756413719], [100.60048515251071, 7.0040798875338055], [100.59943818966809, 7.002985335471124], [100.59877194058657, 7.002081140288908], [100.59824845916518, 7.000843820565819], [100.59786774540436, 6.999987214603607], [100.59767738852389, 6.998987840981215], [100.59739185320319, 6.998274002679295], [100.59710631788244, 6.997512575157373], [100.59620212270028, 6.996180076994392], [100.59601842977594, 6.996010514295051], [100.59558346283876, 6.995609006352936], [100.59520274907783, 6.9952758818121765], [100.59501239219736, 6.994895168051244], [100.59491721375707, 6.9943240974097876], [100.59534551673806, 6.994086151309261], [100.5970111394422, 6.9936102591080385], [100.59749370374823, 6.9933488701087185], [100.59763930294389, 6.993127004668224], [100.59867676214634, 6.9926584747056495], [100.59967613576873, 6.991992225624131], [100.60086586627165, 6.9912783873224384], [100.6018652398941, 6.990707316680812], [100.60310255961707, 6.990231424479816], [100.60457782544069, 6.989898299939057], [100.60657657268558, 6.9896127646183], [100.60919397979205, 6.989469996957894], [100.61092503767384, 6.989392664475247], [100.61229322775205, 6.989303434687599], [100.61294757952874, 6.988946515536668], [100.61363167456784, 6.988589596385509], [100.61389936393113, 6.988173190709688], [100.61419679655683, 6.987637811983461], [100.61419679655683, 6.987370122620348], [100.6138101341433, 6.986805000631136], [100.6134234717299, 6.9862993651676675], [100.61318552562938, 6.985734243178854], [100.61256091711533, 6.984693228988817], [100.61134144334983, 6.983652214798553], [100.61110349724913, 6.983057349547096], [100.61083580788602, 6.98201633535723], [100.61050863199767, 6.981272753792723], [100.60991376674622, 6.980588658753618], [100.60933128132683, 6.979947924792441], [100.60931890149476, 6.979934306977157], [100.60905121213165, 6.97948815803835], [100.60887275255618, 6.978863549524476], [100.60878352276853, 6.977852278597027], [100.60893223908135, 6.977465616183451], [100.60934864475735, 6.976989723982456], [100.60958659085804, 6.976484088518646], [100.6096460773831, 6.97624614241812], [100.60961633412063, 6.975889223267188], [100.60946761780764, 6.975324101278147], [100.60908095539423, 6.974877952339739], [100.60890249581877, 6.974402060138516], [100.60890249581877, 6.97392616793735], [100.60893223908135, 6.97342053247371], [100.60914044191946, 6.972706694171791], [100.60940813128258, 6.971427733881228], [100.60955684759546, 6.970565179266487], [100.6099673046188, 6.9694349352888025], [100.61011007227927, 6.968578329326817], [100.60972935851834, 6.967341009603501], [100.60925346631711, 6.966531992861746], [100.609033366174, 6.965592105764529], [100.609033366174, 6.964967497250427], [100.608973879649, 6.964283402210981], [100.60876567681106, 6.963599307171876], [100.60808158177178, 6.962707009294888], [100.60790312219632, 6.961963427730552], [100.60769491935844, 6.961517278791973], [100.60760568957062, 6.961011643328163], [100.60772466262102, 6.960327548289058], [100.6083492711349, 6.959078331260912], [100.60840875766013, 6.957888600757997], [100.60826004134725, 6.956936816355778], [100.60799235198414, 6.955628112802401], [100.60769491935844, 6.953754287260381], [100.60757594630815, 6.952564556757466], [100.6071297973694, 6.951255853204316], [100.6068323647437, 6.950274325539283], [100.60635647254264, 6.949471257449943], [100.60576160729119, 6.948787162410838], [100.60555340445313, 6.948311270209615], [100.60546417466526, 6.947567688645336], [100.60546417466526, 6.946943080131064], [100.60564263424078, 6.946496931192655], [100.60582109381625, 6.946080525516663], [100.60656467538053, 6.945455917002619], [100.60845039822777, 6.943962805221361], [100.60880375535356, 6.943579375148943], [100.60904050455707, 6.943170444706368], [100.60920706682754, 6.9428373201656655], [100.60958778058847, 6.9425279902349075], [100.609801932079, 6.942337633354441], [100.61070612726121, 6.942171071083976], [100.61137237634284, 6.942171071083976], [100.61213380386477, 6.942171071083976], [100.61313317748721, 6.942171071083976], [100.61401357805943, 6.942147276473918], [100.61425783599435, 6.942128841912677], [100.61487018402141, 6.942014026657773], [100.61531276376849, 6.941971196359532], [100.61545553142889, 6.941814151933215], [100.61554119202503, 6.941671384272752], [100.61545553142889, 6.941442956015976], [100.61525565670433, 6.941328741888071], [100.61506654282596, 6.94130604822243], [100.61450850594849, 6.94092423351691], [100.61392663621422, 6.9407655417711], [100.61355886641348, 6.940665240916189], [100.61346154310598, 6.940638698196153], [100.61236699104336, 6.940305573655451], [100.61189109884214, 6.940115216774757], [100.61123767522417, 6.939719202461163], [100.61065377911916, 6.9391158431525355], [100.61000656572554, 6.937973701870135], [100.60998753003753, 6.937878523429561], [100.60944154152264, 6.935568572021282], [100.6095211556804, 6.935011272917336], [100.60974958393683, 6.934154666955351], [100.61018978422226, 6.933274266384785], [100.61036824379829, 6.932738887656967], [100.61043536809962, 6.93251066503268], [100.61060618989899, 6.931929870914985], [100.61122484976045, 6.931073264952829], [100.61132002820068, 6.929883534449914], [100.6118435096219, 6.929169696148222], [100.61241458026336, 6.928551036286535], [100.61341395388581, 6.928360679406239], [100.6146512736089, 6.928170322525773], [100.61584100411181, 6.927884787205016], [100.61750662681578, 6.92736130578362], [100.61860117887846, 6.926742645922161], [100.61917224951992, 6.926219164500935], [100.61945778484062, 6.925695683079709], [100.61960055250091, 6.9252197908784865], [100.61941019562056, 6.924791487897494], [100.61883912497916, 6.924315595696271], [100.6182680543377, 6.923934881935338], [100.61726868071526, 6.923458989733945], [100.61574582567158, 6.922840329872656], [100.61446091672843, 6.92264997299219], [100.61350913232604, 6.922221670011197], [100.61279529402435, 6.921793367030034], [100.61170074196167, 6.921412653269044], [100.61055860067876, 6.920984350288052], [100.609797173157, 6.920413279646596], [100.60903574563508, 6.919889798225199], [100.60775083669193, 6.918938013823151], [100.60679905228955, 6.917748283320236], [100.6050858403654, 6.9159398929556914], [100.60480401329545, 6.915752008242407], [100.60451476972395, 6.915273643874173], [100.60318227156074, 6.9142266810315505], [100.60194495183765, 6.9131321289688685], [100.60070763211468, 6.911704452365427], [100.59994620459275, 6.910086418881349], [100.59942272317153, 6.908563563837674], [100.59880406331007, 6.907183476454293], [100.59818540344844, 6.906231692051904], [100.59775710046745, 6.905660621410618], [100.59763924256804, 6.905401334031797], [100.5217943312989, 6.97007331993233], [100.52819395018028, 6.988405188157799], [100.5287067283856, 6.988405188157799]]]}}]}