{"type":"FeatureCollection","name":"Thiessen_X90_Hatyai_17-30Nov2025","crs_note":"WGS84 from supplied .prj","features":[{"type":"Feature","properties":{"station_index":0,"name":"Hat Yai (Khlong Hoi Khong)","code":"HAT YAI AIRPORT","weight":0.166063,"polygon_area_km2":254.8391},"geometry":{"type":"Polygon","coordinates":[[[100.190945,6.738568],[100.190964,6.738872],[100.190964,6.739026],[100.190929,6.739252],[100.190894,6.739401],[100.19071,6.73974],[100.190764,6.739829],[100.190913,6.740132],[100.191033,6.740524],[100.19109,6.741926],[100.191097,6.742182],[100.191223,6.742675],[100.191324,6.743264],[100.191236,6.743379],[100.190999,6.743538],[100.190729,6.743719],[100.190595,6.743853],[100.19053,6.74393],[100.190423,6.744035],[100.190328,6.7441],[100.19021,6.744246],[100.19005,6.744377],[100.18983,6.744396],[100.189574,6.744468],[100.189408,6.744587],[100.189266,6.744736],[100.1892,6.74479],[100.189117,6.744837],[100.18872,6.744874],[100.188367,6.744918],[100.188196,6.745],[100.188274,6.745362],[100.188287,6.745737],[100.188366,6.74623],[100.188456,6.746687],[100.188617,6.746937],[100.188861,6.747162],[100.189183,6.747411],[100.189552,6.747624],[100.18982,6.74776],[100.190189,6.747973],[100.190534,6.748067],[100.190981,6.748345],[100.191089,6.74869],[100.191196,6.748814],[100.191339,6.748933],[100.191458,6.749022],[100.19153,6.74917],[100.19153,6.749313],[100.191519,6.749414],[100.191501,6.749527],[100.191424,6.749634],[100.191323,6.749789],[100.191413,6.750121],[100.191426,6.750454],[100.191367,6.750561],[100.191302,6.750675],[100.191219,6.750865],[100.191136,6.75118],[100.191274,6.751388],[100.191334,6.751578],[100.19134,6.751703],[100.191228,6.751935],[100.191115,6.752244],[100.191197,6.75247],[100.191235,6.752577],[100.191265,6.752719],[100.19123,6.752921],[100.191195,6.753118],[100.191118,6.75335],[100.191136,6.75354],[100.191196,6.753724],[100.191292,6.753837],[100.191387,6.753925],[100.191548,6.753943],[100.192047,6.754362],[100.192198,6.754573],[100.192349,6.754986],[100.192641,6.755638],[100.192743,6.755887],[100.192872,6.756201],[100.193111,6.756702],[100.193217,6.757098],[100.193289,6.75742],[100.193369,6.757776],[100.193608,6.758163],[100.193896,6.758579],[100.194209,6.758955],[100.194351,6.759342],[100.194387,6.759685],[100.194446,6.760075],[100.194506,6.76042],[100.194418,6.760777],[100.194443,6.761217],[100.194508,6.761353],[100.194539,6.761419],[100.194986,6.761833],[100.194849,6.761994],[100.194808,6.762113],[100.194731,6.762411],[100.194643,6.762536],[100.19453,6.762631],[100.194369,6.762715],[100.194174,6.76284],[100.193924,6.762995],[100.193752,6.763269],[100.194094,6.764171],[100.194249,6.76467],[100.194476,6.765032],[100.194512,6.76524],[100.19459,6.765335],[100.194721,6.76543],[100.194965,6.765513],[100.195197,6.765589],[100.195358,6.765761],[100.195578,6.765963],[100.195603,6.766432],[100.195842,6.766568],[100.196039,6.766966],[100.196122,6.767114],[100.196289,6.767269],[100.196438,6.767393],[100.196736,6.767577],[100.197385,6.768009],[100.197505,6.768353],[100.197517,6.768537],[100.197559,6.768733],[100.197643,6.768906],[100.197608,6.769185],[100.197519,6.769364],[100.197401,6.769554],[100.197318,6.769649],[100.197253,6.769804],[100.197235,6.769929],[100.197164,6.77006],[100.197093,6.770203],[100.19707,6.77053],[100.197118,6.770779],[100.197238,6.77091],[100.197387,6.771058],[100.197459,6.771272],[100.197133,6.771742],[100.197329,6.772009],[100.197437,6.772128],[100.197598,6.772294],[100.197676,6.772579],[100.197736,6.772888],[100.197862,6.773333],[100.197952,6.773606],[100.198131,6.773915],[100.19837,6.774307],[100.198608,6.774609],[100.198805,6.774846],[100.199038,6.775167],[100.199241,6.775457],[100.199344,6.775684],[100.199248,6.775856],[100.199242,6.776129],[100.19922,6.776581],[100.199221,6.777062],[100.199222,6.777395],[100.199438,6.778328],[100.199558,6.778833],[100.199607,6.779165],[100.199638,6.77995],[100.199586,6.780277],[100.199444,6.780741],[100.199362,6.781163],[100.199386,6.781508],[100.199536,6.781905],[100.199537,6.782286],[100.199633,6.78269],[100.199342,6.78275],[100.199021,6.782792],[100.198688,6.782769],[100.197826,6.782914],[100.197851,6.783491],[100.197787,6.783746],[100.197698,6.783943],[100.197479,6.7843],[100.197372,6.784407],[100.197045,6.784562],[100.196872,6.78471],[100.196731,6.7849],[100.196538,6.785191],[100.196394,6.785717],[100.196211,6.786122],[100.196104,6.786247],[100.195979,6.786312],[100.195863,6.786369],[100.195819,6.786501],[100.19574,6.786739],[100.195644,6.786964],[100.195452,6.787181],[100.195037,6.787515],[100.19474,6.787748],[100.194592,6.787873],[100.194438,6.788052],[100.194308,6.788325],[100.194304,6.788535],[100.194322,6.788724],[100.194399,6.789044],[100.194388,6.789395],[100.194346,6.789579],[100.194342,6.789764],[100.194343,6.790002],[100.194286,6.790275],[100.194199,6.790535],[100.194146,6.790821],[100.194154,6.791012],[100.194172,6.791232],[100.194173,6.791517],[100.194227,6.791719],[100.19434,6.792016],[100.194395,6.792307],[100.194437,6.792711],[100.194438,6.792896],[100.194331,6.793003],[100.194326,6.793556],[100.19438,6.793716],[100.194256,6.794067],[100.194234,6.794169],[100.194261,6.794345],[100.194358,6.794582],[100.194562,6.794851],[100.194562,6.79497],[100.194532,6.795106],[100.194453,6.795371],[100.194406,6.795668],[100.194564,6.795762],[100.194666,6.795885],[100.194798,6.796154],[100.194914,6.796484],[100.194919,6.796779],[100.19492,6.796933],[100.19493,6.797165],[100.194924,6.797322],[100.194972,6.797524],[100.195053,6.797723],[100.195259,6.79802],[100.195375,6.798112],[100.195435,6.798165],[100.195213,6.79821],[100.195011,6.79821],[100.194706,6.798198],[100.194473,6.798154],[100.19437,6.798105],[100.194302,6.798073],[100.194153,6.798049],[100.194007,6.798038],[100.193865,6.798035],[100.193749,6.798027],[100.193562,6.798066],[100.193114,6.798421],[100.192811,6.798689],[100.192704,6.798817],[100.192639,6.798918],[100.192515,6.799043],[100.192459,6.799266],[100.192438,6.799385],[100.192367,6.799599],[100.192386,6.800075],[100.192483,6.80071],[100.192501,6.80099],[100.19252,6.801186],[100.192556,6.801376],[100.192657,6.801572],[100.192789,6.801649],[100.192914,6.801749],[100.193009,6.801951],[100.192987,6.802397],[100.19285,6.802469],[100.192749,6.802546],[100.192624,6.802636],[100.192458,6.802731],[100.192298,6.802946],[100.192221,6.803106],[100.192168,6.803249],[100.192086,6.80354],[100.192107,6.803571],[100.192312,6.803861],[100.192378,6.803956],[100.192396,6.80408],[100.19237,6.80422],[100.192305,6.804378],[100.192165,6.804577],[100.192071,6.80478],[100.191986,6.805187],[100.19251,6.80559],[100.192632,6.8057],[100.192766,6.805821],[100.193019,6.805933],[100.193171,6.8059],[100.193459,6.805962],[100.193578,6.80598],[100.193763,6.80605],[100.193918,6.806145],[100.194185,6.806263],[100.194418,6.806524],[100.194519,6.806673],[100.194615,6.806815],[100.194704,6.806928],[100.1948,6.807082],[100.194818,6.807296],[100.194705,6.807368],[100.194545,6.807433],[100.194325,6.807469],[100.194141,6.807363],[100.193843,6.807215],[100.193432,6.807115],[100.19326,6.807121],[100.193129,6.807223],[100.193041,6.807401],[100.193041,6.80755],[100.19294,6.807806],[100.192905,6.807943],[100.192763,6.808026],[100.19265,6.808139],[100.192436,6.808223],[100.19218,6.808218],[100.191931,6.808183],[100.191461,6.808077],[100.191223,6.808095],[100.191014,6.808048],[100.190521,6.807942],[100.190384,6.807889],[100.19017,6.807973],[100.190176,6.808151],[100.190254,6.808353],[100.190338,6.808656],[100.190368,6.808912],[100.190375,6.809292],[100.190341,6.809643],[100.190359,6.809886],[100.190342,6.8101],[100.190324,6.810338],[100.190277,6.810416],[100.190271,6.810552],[100.190278,6.810742],[100.190302,6.810855],[100.190379,6.810938],[100.190504,6.811004],[100.190647,6.811051],[100.190832,6.81111],[100.191218,6.811168],[100.191694,6.811298],[100.191962,6.811464],[100.192129,6.811528],[100.192254,6.811647],[100.192362,6.811783],[100.192493,6.811985],[100.192583,6.812157],[100.192654,6.812335],[100.192744,6.812537],[100.192935,6.812733],[100.19306,6.81278],[100.193149,6.812756],[100.193274,6.812708],[100.193404,6.812637],[100.193541,6.812512],[100.193707,6.812351],[100.194093,6.811987],[100.194229,6.811832],[100.194359,6.811654],[100.194418,6.811564],[100.194436,6.811439],[100.194483,6.811332],[100.194596,6.811285],[100.194709,6.811183],[100.194709,6.811136],[100.194863,6.810874],[100.194861,6.810838],[100.195024,6.81086],[100.195174,6.810926],[100.195479,6.811052],[100.195787,6.811087],[100.19599,6.811148],[100.196184,6.811231],[100.196208,6.811275],[100.196257,6.811827],[100.196329,6.812297],[100.196557,6.812902],[100.19667,6.813235],[100.196416,6.813866],[100.19634,6.814454],[100.196364,6.814585],[100.19655,6.814929],[100.196556,6.815101],[100.196468,6.8155],[100.196552,6.815773],[100.196707,6.816022],[100.196773,6.8162],[100.196791,6.816498],[100.196732,6.816682],[100.196632,6.816807],[100.196448,6.817051],[100.1963,6.817325],[100.196211,6.817581],[100.196183,6.817973],[100.19625,6.818662],[100.196328,6.818965],[100.196358,6.819096],[100.19634,6.819268],[100.196311,6.819393],[100.196395,6.819607],[100.196508,6.819862],[100.196533,6.820225],[100.196505,6.820867],[100.196506,6.821235],[100.196305,6.821592],[100.196056,6.821961],[100.19589,6.822259],[100.195873,6.822485],[100.195927,6.822782],[100.195975,6.823073],[100.195988,6.823525],[100.195882,6.823822],[100.195795,6.824714],[100.19566,6.825273],[100.19547,6.825731],[100.195335,6.826094],[100.19521,6.826403],[100.195229,6.826736],[100.195331,6.826867],[100.195712,6.827187],[100.196463,6.82775],[100.197052,6.828152],[100.197291,6.828472],[100.197464,6.828811],[100.197622,6.830195],[100.197683,6.830564],[100.197737,6.83089],[100.197726,6.831152],[100.197839,6.831431],[100.198137,6.831757],[100.198543,6.832184],[100.198768,6.83191],[100.198958,6.831743],[100.199196,6.83157],[100.199439,6.831588],[100.199653,6.831587],[100.19985,6.831658],[100.200016,6.83164],[100.200111,6.831616],[100.200473,6.831199],[100.200622,6.831484],[100.200742,6.831656],[100.200849,6.831828],[100.20101,6.832],[100.201183,6.832124],[100.201362,6.832278],[100.201511,6.832373],[100.201719,6.832384],[100.202088,6.832395],[100.202373,6.832484],[100.20273,6.832512],[100.203045,6.832518],[100.203277,6.832475],[100.203323,6.83194],[100.2034,6.83175],[100.203769,6.831874],[100.204013,6.831897],[100.204275,6.832009],[100.204596,6.832181],[100.204959,6.832222],[100.20499,6.832329],[100.205025,6.832453],[100.205097,6.832572],[100.205187,6.832798],[100.205348,6.83297],[100.205699,6.833218],[100.205795,6.833408],[100.206069,6.833835],[100.206367,6.83412],[100.2066,6.834524],[100.206992,6.834344],[100.207254,6.834195],[100.207771,6.834354],[100.20817,6.83446],[100.208557,6.834548],[100.208783,6.834679],[100.208997,6.834779],[100.209307,6.834754],[100.209409,6.83526],[100.209517,6.835586],[100.209661,6.83599],[100.210036,6.836233],[100.209703,6.836441],[100.209609,6.836572],[100.20949,6.836763],[100.20939,6.837096],[100.209343,6.837269],[100.209332,6.837595],[100.209362,6.837904],[100.209387,6.83841],[100.209762,6.838575],[100.209935,6.838658],[100.210108,6.838883],[100.210204,6.839222],[100.210252,6.839549],[100.210378,6.839875],[100.210454,6.840027],[100.210516,6.840115],[100.210385,6.840154],[100.210076,6.840221],[100.210064,6.840223],[100.211481,6.840275],[100.215898,6.840599],[100.216612,6.840524],[100.219525,6.840581],[100.221124,6.840753],[100.223123,6.840639],[100.224379,6.840239],[100.225464,6.839554],[100.226663,6.838982],[100.228091,6.838526],[100.230033,6.837612],[100.231746,6.837326],[100.232488,6.837383],[100.233288,6.837383],[100.234144,6.837612],[100.235172,6.838469],[100.2358,6.839382],[100.235845,6.839472],[100.2362,6.840182],[100.236314,6.84081],[100.236657,6.841438],[100.237628,6.842009],[100.238656,6.842066],[100.240141,6.841666],[100.240883,6.84121],[100.241911,6.840696],[100.242825,6.840125],[100.243228,6.840088],[100.243453,6.840067],[100.244595,6.840296],[100.245052,6.841153],[100.245166,6.84218],[100.245223,6.843323],[100.24488,6.844922],[100.244793,6.845706],[100.244709,6.846463],[100.244366,6.848234],[100.244652,6.850061],[100.244652,6.851089],[100.244709,6.852688],[100.244366,6.854116],[100.243852,6.855201],[100.243681,6.856743],[100.243852,6.858285],[100.244195,6.860112],[100.244652,6.86154],[100.244938,6.862396],[100.244823,6.86331],[100.244652,6.864395],[100.244366,6.86588],[100.243967,6.867079],[100.24391,6.867822],[100.244366,6.868278],[100.245109,6.869135],[100.245623,6.871134],[100.246023,6.87239],[100.246365,6.873532],[100.247165,6.875074],[100.247336,6.876273],[100.247279,6.877301],[100.247279,6.879015],[100.24705,6.881127],[100.246936,6.883183],[100.247564,6.883926],[100.248649,6.884497],[100.249735,6.884897],[100.250705,6.885182],[100.252304,6.885525],[100.253104,6.885582],[100.254589,6.885582],[100.256816,6.885239],[100.258358,6.885125],[100.260985,6.884839],[100.262926,6.884839],[100.265896,6.885182],[100.266292,6.885267],[100.267495,6.885525],[100.270464,6.885924],[100.271337,6.886907],[100.271835,6.887466],[100.272454,6.887914],[100.272863,6.888209],[100.272977,6.88918],[100.273263,6.890607],[100.273434,6.892663],[100.273263,6.893463],[100.27332,6.894262],[100.273148,6.895233],[100.27332,6.896318],[100.273548,6.897403],[100.2736,6.89896],[100.274062,6.899345],[100.274589,6.899661],[100.275204,6.90003],[100.276575,6.900201],[100.277346,6.900096],[100.277831,6.90003],[100.278459,6.90003],[100.279487,6.900373],[100.279599,6.900398],[100.279984,6.900485],[100.281843,6.902],[100.285055,6.905284],[100.287268,6.90614],[100.289552,6.906711],[100.29148,6.906711],[100.29355,6.906854],[100.29612,6.906569],[100.297833,6.907211],[100.298333,6.908996],[100.299689,6.909995],[100.302259,6.91128],[100.303615,6.911922],[100.304757,6.912351],[100.305971,6.912922],[100.30747,6.913921],[100.307969,6.914992],[100.308969,6.915634],[100.310468,6.916777],[100.312228,6.918174],[100.315893,6.919846],[100.316401,6.920354],[100.317107,6.92106],[100.318249,6.921488],[100.322032,6.922844],[100.323653,6.922565],[100.41629,6.860806],[100.396667,6.833333],[100.210526,6.740263],[100.190943,6.73856],[100.190945,6.738568]]]}},{"type":"Feature","properties":{"station_index":1,"name":"Sa Dao (Tha Pho)","code":"SA DAO","weight":0.140741,"polygon_area_km2":215.9801},"geometry":{"type":"Polygon","coordinates":[[[100.396667,6.833333],[100.50875,6.72125],[100.405,6.714333],[100.210526,6.740263],[100.396667,6.833333]]]}},{"type":"Feature","properties":{"station_index":2,"name":"Agriculture Sa Dao","code":"580254","weight":0.29213,"polygon_area_km2":448.3013},"geometry":{"type":"Polygon","coordinates":[[[100.55207,6.716281],[100.552002,6.715766],[100.552284,6.715353],[100.552713,6.715067],[100.552748,6.714889],[100.552784,6.714496],[100.55282,6.714068],[100.552677,6.713782],[100.552676,6.713761],[100.552674,6.71374],[100.552641,6.713247],[100.551935,6.712658],[100.55196,6.7126],[100.551678,6.712212],[100.551749,6.711533],[100.552249,6.710927],[100.552463,6.710213],[100.552499,6.70982],[100.552855,6.709428],[100.55307,6.709071],[100.553105,6.708678],[100.553212,6.708357],[100.553748,6.708071],[100.55439,6.707929],[100.555354,6.70775],[100.555604,6.70725],[100.555675,6.70618],[100.555747,6.70568],[100.555211,6.705323],[100.554569,6.704538],[100.554355,6.703646],[100.554319,6.703146],[100.553998,6.702611],[100.553569,6.702325],[100.553319,6.702039],[100.553284,6.701754],[100.553391,6.701433],[100.553498,6.701076],[100.553855,6.700719],[100.553926,6.700398],[100.553783,6.699827],[100.553319,6.699006],[100.553319,6.698113],[100.553534,6.697542],[100.553676,6.697043],[100.553926,6.696436],[100.554283,6.696186],[100.554997,6.69615],[100.555711,6.69615],[100.556532,6.695793],[100.557531,6.695365],[100.558031,6.695008],[100.558423,6.694758],[100.55853,6.69408],[100.55853,6.69358],[100.558602,6.693045],[100.558923,6.692652],[100.559351,6.692331],[100.560065,6.691974],[100.560636,6.69151],[100.560958,6.690725],[100.561564,6.690404],[100.56235,6.690332],[100.562599,6.690047],[100.562992,6.689297],[100.56317,6.68762],[100.562921,6.686549],[100.562564,6.6858],[100.561957,6.685193],[100.561636,6.6848],[100.5616,6.684372],[100.561636,6.683694],[100.561993,6.682409],[100.562849,6.679982],[100.563818,6.67794],[100.563767,6.677568],[100.563934,6.676992],[100.564648,6.675612],[100.564981,6.674613],[100.565315,6.674232],[100.565981,6.673947],[100.566742,6.673709],[100.56798,6.673518],[100.568789,6.673328],[100.569264,6.672995],[100.569217,6.672424],[100.569217,6.671615],[100.569407,6.670806],[100.569407,6.669806],[100.56955,6.669331],[100.569788,6.668902],[100.570073,6.668474],[100.570645,6.667855],[100.571073,6.667617],[100.571549,6.667284],[100.571882,6.667046],[100.571882,6.666666],[100.571596,6.666142],[100.571263,6.665],[100.57112,6.664572],[100.570787,6.664143],[100.570216,6.663763],[100.569836,6.663239],[100.569693,6.662716],[100.569693,6.661764],[100.569645,6.66086],[100.569455,6.660574],[100.568598,6.660431],[100.56817,6.660003],[100.568122,6.659289],[100.567599,6.658956],[100.56698,6.658385],[100.566695,6.657243],[100.566266,6.655149],[100.566076,6.652484],[100.566362,6.650295],[100.566647,6.648106],[100.566983,6.646676],[100.567141,6.645417],[100.567587,6.643424],[100.567855,6.642651],[100.568329,6.641861],[100.568646,6.641253],[100.568884,6.639349],[100.569122,6.637779],[100.569455,6.636875],[100.569788,6.636494],[100.570355,6.636332],[100.570454,6.636167],[100.570454,6.635828],[100.570264,6.635257],[100.569836,6.634305],[100.570073,6.633258],[100.570597,6.632021],[100.571003,6.63171],[100.571394,6.631289],[100.57181,6.630843],[100.571934,6.630731],[100.572108,6.630575],[100.572108,6.630245],[100.572108,6.630186],[100.572108,6.630129],[100.571929,6.629683],[100.571739,6.62884],[100.571721,6.628761],[100.571691,6.628404],[100.571929,6.627839],[100.572138,6.627422],[100.572391,6.626901],[100.572263,6.626548],[100.571977,6.62612],[100.571311,6.625596],[100.571041,6.625437],[100.570874,6.625104],[100.570829,6.625013],[100.570621,6.624656],[100.570561,6.624299],[100.570561,6.624207],[100.570561,6.623883],[100.570621,6.623526],[100.571335,6.622991],[100.571751,6.622544],[100.572643,6.622247],[100.572919,6.622208],[100.573708,6.622134],[100.574065,6.622074],[100.57441,6.622003],[100.574458,6.621896],[100.57447,6.621694],[100.574374,6.621527],[100.574113,6.621432],[100.573803,6.621325],[100.573766,6.621314],[100.573536,6.621176],[100.57306,6.620849],[100.572495,6.620522],[100.572394,6.620506],[100.572209,6.620409],[100.571947,6.620337],[100.571578,6.620302],[100.571195,6.620315],[100.571186,6.620314],[100.570383,6.620284],[100.56955,6.620284],[100.569104,6.620284],[100.568947,6.620216],[100.568896,6.620075],[100.568896,6.619927],[100.569282,6.619243],[100.569818,6.617875],[100.570532,6.616774],[100.570607,6.616611],[100.570853,6.616269],[100.571257,6.615269],[100.571296,6.615126],[100.571626,6.613901],[100.571776,6.613281],[100.57181,6.613116],[100.571751,6.612372],[100.571589,6.611967],[100.571412,6.611367],[100.570674,6.610225],[100.57027,6.609796],[100.569818,6.609404],[100.569509,6.609203],[100.569021,6.607726],[100.568913,6.607357],[100.567438,6.605858],[100.567275,6.605637],[100.566415,6.604466],[100.565749,6.603431],[100.565475,6.60311],[100.565213,6.602801],[100.56513,6.602527],[100.565047,6.602349],[100.565142,6.602087],[100.565428,6.601813],[100.565999,6.601504],[100.566379,6.601195],[100.566677,6.6001],[100.566582,6.599291],[100.566736,6.598446],[100.566963,6.598211],[100.566936,6.598128],[100.567676,6.597709],[100.568176,6.597459],[100.568854,6.597102],[100.569211,6.596816],[100.569247,6.59646],[100.568961,6.595996],[100.568319,6.595853],[100.567498,6.59571],[100.566998,6.595532],[100.566049,6.595466],[100.565963,6.59546],[100.565392,6.59521],[100.565035,6.594925],[100.564856,6.594604],[100.564749,6.593783],[100.564535,6.592462],[100.564393,6.59157],[100.564393,6.590499],[100.564464,6.589821],[100.564321,6.58925],[100.564143,6.588572],[100.56425,6.588036],[100.564571,6.587679],[100.565515,6.586924],[100.56582,6.58668],[100.566248,6.586073],[100.566427,6.585609],[100.566784,6.58461],[100.567248,6.58361],[100.567533,6.583075],[100.568247,6.582183],[100.568568,6.581005],[100.568461,6.579898],[100.568426,6.579363],[100.568676,6.578756],[100.569032,6.5779],[100.568997,6.577329],[100.568997,6.577007],[100.56914,6.576758],[100.569925,6.576222],[100.570424,6.575687],[100.57046,6.575473],[100.570282,6.574902],[100.57021,6.574509],[100.570282,6.573831],[100.570567,6.573331],[100.57071,6.57276],[100.57071,6.572225],[100.570664,6.571877],[100.570639,6.571689],[100.570567,6.571368],[100.570567,6.571047],[100.570746,6.570797],[100.571203,6.570454],[100.571745,6.570048],[100.572637,6.569227],[100.573315,6.568834],[100.574386,6.568513],[100.575136,6.568049],[100.57585,6.567585],[100.576421,6.567299],[100.57692,6.567156],[100.577349,6.566657],[100.577599,6.565586],[100.577777,6.565051],[100.578384,6.56423],[100.578491,6.563552],[100.578919,6.562838],[100.579205,6.562481],[100.57974,6.562195],[100.580275,6.56216],[100.580954,6.562053],[100.581846,6.561624],[100.583916,6.561339],[100.585308,6.561339],[100.586379,6.56116],[100.58695,6.561196],[100.588377,6.561874],[100.58952,6.562695],[100.590233,6.563373],[100.591161,6.564301],[100.591733,6.564801],[100.592482,6.564944],[100.592982,6.564694],[100.593232,6.564372],[100.593303,6.563873],[100.593196,6.562766],[100.592982,6.56216],[100.592982,6.561517],[100.59316,6.560839],[100.593124,6.559947],[100.593017,6.55884],[100.592982,6.558305],[100.592946,6.557984],[100.593017,6.557841],[100.593303,6.557769],[100.593624,6.557591],[100.593803,6.55727],[100.59391,6.55677],[100.59391,6.556485],[100.593696,6.556128],[100.593553,6.555914],[100.593517,6.555521],[100.59366,6.555021],[100.594124,6.553772],[100.594296,6.553084],[100.594603,6.552504],[100.594717,6.551895],[100.594603,6.551438],[100.594546,6.551133],[100.594318,6.550714],[100.594146,6.550505],[100.593956,6.550277],[100.593884,6.550094],[100.593981,6.548704],[100.594052,6.548311],[100.594516,6.548097],[100.59498,6.547811],[100.596016,6.547347],[100.596729,6.546705],[100.597979,6.545491],[100.598407,6.544992],[100.5988,6.544778],[100.599121,6.544385],[100.599272,6.543831],[100.599438,6.543557],[100.599438,6.542986],[100.599402,6.542555],[100.59939,6.542411],[100.599381,6.542301],[100.599355,6.542228],[100.598981,6.541197],[100.598734,6.539826],[100.598563,6.538703],[100.598391,6.53777],[100.598258,6.537332],[100.598239,6.537066],[100.598258,6.536761],[100.599038,6.536152],[100.600209,6.535488],[100.600314,6.535429],[100.60098,6.534877],[100.601761,6.534458],[100.602541,6.534172],[100.60315,6.533849],[100.60355,6.533468],[100.603683,6.533163],[100.603683,6.532745],[100.603683,6.532288],[100.603588,6.53166],[100.603531,6.531012],[100.603512,6.530575],[100.603398,6.530194],[100.603207,6.529661],[100.60296,6.528976],[100.602731,6.528538],[100.602693,6.52829],[100.60275,6.528081],[100.602941,6.527853],[100.603436,6.5277],[100.603988,6.527567],[100.604387,6.527434],[100.604901,6.527129],[100.605453,6.526463],[100.606025,6.525701],[100.6069,6.524845],[100.607528,6.524141],[100.608176,6.523589],[100.608423,6.52336],[100.608518,6.522998],[100.608575,6.522523],[100.608575,6.521932],[100.608537,6.521552],[100.608556,6.521057],[100.608556,6.520524],[100.60848,6.520067],[100.608461,6.51961],[100.608728,6.518582],[100.608937,6.51784],[100.609203,6.517402],[100.609813,6.517002],[100.611031,6.516431],[100.611983,6.515822],[100.61263,6.515517],[100.612877,6.515289],[100.612896,6.515099],[100.612744,6.514984],[100.61242,6.514927],[100.612192,6.51468],[100.611983,6.514356],[100.611412,6.514014],[100.610593,6.513557],[100.609736,6.513195],[100.609165,6.512643],[100.608537,6.511691],[100.608137,6.510473],[100.607814,6.509997],[100.607643,6.509616],[100.607566,6.50914],[100.607528,6.50876],[100.607509,6.508417],[100.607566,6.507941],[100.607757,6.507503],[100.608118,6.507275],[100.610269,6.50638],[100.610841,6.506038],[100.611079,6.505665],[100.611145,6.505467],[100.611145,6.504972],[100.611031,6.504305],[100.610745,6.503277],[100.610441,6.502497],[100.610269,6.501736],[100.610117,6.500936],[100.609965,6.500327],[100.609965,6.500041],[100.609965,6.499794],[100.610041,6.499585],[100.610288,6.499394],[100.610536,6.49928],[100.610974,6.499109],[100.611145,6.498975],[100.611354,6.498804],[100.611354,6.498576],[100.611183,6.498347],[100.61086,6.498005],[100.610327,6.497586],[100.609489,6.497091],[100.609394,6.496786],[100.609318,6.496348],[100.609184,6.495892],[100.608918,6.495606],[100.608811,6.495492],[100.608827,6.495439],[100.608594,6.495206],[100.608061,6.494483],[100.607795,6.493988],[100.607662,6.493569],[100.607604,6.493208],[100.607547,6.492865],[100.607624,6.492427],[100.607681,6.492065],[100.607681,6.491818],[100.607566,6.491475],[100.607357,6.491228],[100.607148,6.491018],[100.607071,6.49079],[100.607033,6.490562],[100.607091,6.490333],[100.6073,6.489972],[100.607719,6.489515],[100.608157,6.489172],[100.608518,6.488487],[100.608785,6.487687],[100.609146,6.48685],[100.60928,6.486113],[100.609323,6.484666],[100.609278,6.484252],[100.609432,6.483975],[100.609717,6.483671],[100.609965,6.483366],[100.610117,6.483119],[100.610136,6.482795],[100.609889,6.482471],[100.609546,6.481786],[100.609394,6.481329],[100.609222,6.480872],[100.609184,6.480378],[100.609108,6.479445],[100.608823,6.478207],[100.60867,6.47737],[100.608518,6.476932],[100.608556,6.476475],[100.608575,6.476209],[100.608747,6.475904],[100.608899,6.475714],[100.608956,6.47539],[100.608823,6.475048],[100.608709,6.474705],[100.608556,6.474229],[100.608385,6.473658],[100.608347,6.473011],[100.60831,6.472681],[100.60829,6.472497],[100.60825,6.472222],[100.608164,6.472189],[100.608159,6.472124],[100.607899,6.472088],[100.607337,6.472009],[100.607154,6.471919],[100.606807,6.47175],[100.606137,6.47164],[100.604877,6.471855],[100.604391,6.471574],[100.604052,6.470892],[100.604417,6.470682],[100.604533,6.470399],[100.604192,6.469945],[100.604211,6.469614],[100.604142,6.469318],[100.60349,6.468705],[100.603062,6.468543],[100.602314,6.468354],[100.602161,6.468442],[100.602258,6.469174],[100.601778,6.4694],[100.601392,6.469922],[100.601477,6.470586],[100.601148,6.470936],[100.600514,6.471593],[100.600253,6.472032],[100.599813,6.472516],[100.599355,6.473123],[100.598999,6.473956],[100.598612,6.474875],[100.598389,6.475084],[100.597804,6.475192],[100.59747,6.475402],[100.596738,6.475458],[100.596332,6.475897],[100.595904,6.477091],[100.59516,6.477442],[100.593874,6.477765],[100.593306,6.477849],[100.592503,6.47827],[100.591644,6.478327],[100.59107,6.4783],[100.590679,6.478321],[100.590341,6.478851],[100.589449,6.479236],[100.589162,6.479164],[100.58879,6.478866],[100.58847,6.47858],[100.587403,6.478381],[100.586812,6.478262],[100.586012,6.478008],[100.585643,6.47784],[100.585152,6.477682],[100.58458,6.477903],[100.583979,6.478419],[100.583556,6.478589],[100.583467,6.478647],[100.582817,6.478654],[100.582232,6.479503],[100.581905,6.479621],[100.580265,6.480081],[100.579382,6.480275],[100.578415,6.480828],[100.577826,6.481104],[100.577511,6.481387],[100.577074,6.481574],[100.576724,6.481719],[100.575751,6.481834],[100.575471,6.481838],[100.575032,6.481938],[100.574834,6.482316],[100.574717,6.482635],[100.574654,6.482811],[100.574601,6.482819],[100.574474,6.482815],[100.574377,6.482784],[100.574168,6.482698],[100.573891,6.482585],[100.573121,6.482712],[100.572918,6.483013],[100.572605,6.483761],[100.572034,6.484291],[100.571874,6.485057],[100.571566,6.485212],[100.571217,6.485382],[100.571171,6.485602],[100.571181,6.485953],[100.571101,6.48645],[100.570888,6.48671],[100.570578,6.487043],[100.570285,6.48744],[100.57011,6.487634],[100.568879,6.487937],[100.568391,6.488444],[100.568031,6.488764],[100.567632,6.489498],[100.567424,6.489781],[100.567022,6.490169],[100.566777,6.490336],[100.566287,6.490423],[100.5659,6.490603],[100.565577,6.491048],[100.565379,6.491603],[100.565122,6.491908],[100.564808,6.492493],[100.564553,6.493097],[100.56409,6.493953],[100.563985,6.494889],[100.563853,6.495092],[100.563189,6.49564],[100.562376,6.496017],[100.561627,6.495871],[100.561144,6.495724],[100.560836,6.495522],[100.560494,6.495087],[100.560384,6.494537],[100.560455,6.494258],[100.560419,6.493981],[100.560261,6.493751],[100.559862,6.493728],[100.559669,6.49364],[100.558969,6.493354],[100.558719,6.49316],[100.558486,6.492926],[100.558003,6.492554],[100.557188,6.492689],[100.556412,6.492578],[100.556123,6.492567],[100.555766,6.492459],[100.555201,6.492049],[100.554821,6.49203],[100.553909,6.491744],[100.553691,6.491664],[100.553272,6.491572],[100.552964,6.491425],[100.552681,6.491332],[100.552622,6.491052],[100.552673,6.490115],[100.552011,6.48941],[100.551194,6.488734],[100.550885,6.488275],[100.550511,6.487958],[100.550259,6.487559],[100.550341,6.487107],[100.550581,6.486295],[100.550552,6.486155],[100.550368,6.485974],[100.550114,6.485778],[100.54986,6.4856],[100.549426,6.485254],[100.549244,6.485056],[100.548919,6.484673],[100.548598,6.484386],[100.547973,6.48449],[100.547255,6.484817],[100.54639,6.486031],[100.546172,6.486287],[100.54567,6.48676],[100.545556,6.487012],[100.545037,6.487872],[100.544807,6.48804],[100.544278,6.488703],[100.543811,6.489364],[100.543325,6.489839],[100.542815,6.490617],[100.542497,6.490946],[100.542272,6.491116],[100.541941,6.491102],[100.541534,6.490892],[100.541508,6.490498],[100.541244,6.489983],[100.540856,6.489713],[100.54061,6.489181],[100.540194,6.48864],[100.539895,6.488362],[100.539299,6.488228],[100.53865,6.488434],[100.538375,6.488298],[100.538051,6.488159],[100.537766,6.487532],[100.537449,6.487169],[100.536744,6.486638],[100.536065,6.48704],[100.535714,6.487238],[100.535419,6.487604],[100.535028,6.48791],[100.53433,6.488564],[100.533697,6.489387],[100.533336,6.489346],[100.532804,6.48944],[100.532459,6.489737],[100.532079,6.489921],[100.531642,6.489841],[100.53146,6.489782],[100.531052,6.489544],[100.5307,6.489363],[100.530557,6.489301],[100.529852,6.488956],[100.529016,6.488504],[100.528655,6.488581],[100.528367,6.48876],[100.527735,6.488711],[100.527266,6.488577],[100.526616,6.48841],[100.526073,6.487878],[100.525784,6.487752],[100.525431,6.487592],[100.52522,6.487741],[100.524971,6.487892],[100.52459,6.488492],[100.524175,6.488842],[100.523612,6.489643],[100.523298,6.490211],[100.523223,6.490418],[100.523111,6.490524],[100.522971,6.490491],[100.522451,6.490093],[100.522032,6.489823],[100.521291,6.489403],[100.521033,6.489019],[100.520486,6.48893],[100.520129,6.48917],[100.519433,6.488978],[100.519199,6.488692],[100.518931,6.488603],[100.518583,6.488874],[100.518431,6.489066],[100.517898,6.489832],[100.517148,6.490621],[100.516762,6.491013],[100.516474,6.491699],[100.516007,6.492422],[100.515729,6.492964],[100.515352,6.493349],[100.515257,6.493427],[100.515171,6.493498],[100.514876,6.493499],[100.51449,6.493309],[100.514191,6.493184],[100.514065,6.493133],[100.513055,6.493057],[100.512244,6.49279],[100.511994,6.492479],[100.511703,6.492278],[100.51201,6.49294],[100.511665,6.493863],[100.511576,6.494339],[100.511123,6.494816],[100.510768,6.494732],[100.510306,6.49479],[100.510092,6.495419],[100.50966,6.495983],[100.509486,6.496465],[100.509505,6.497057],[100.509802,6.497688],[100.509631,6.497798],[100.509425,6.49793],[100.509322,6.498095],[100.509218,6.498537],[100.509181,6.498881],[100.508961,6.499261],[100.508828,6.499491],[100.508656,6.499664],[100.508389,6.499741],[100.507816,6.499895],[100.507415,6.499859],[100.506937,6.499803],[100.506784,6.499688],[100.50642,6.499422],[100.506133,6.499174],[100.505636,6.498946],[100.505234,6.49889],[100.504986,6.498872],[100.504661,6.499026],[100.504356,6.499141],[100.504146,6.499161],[100.503802,6.49899],[100.503496,6.498972],[100.503172,6.499298],[100.503,6.499451],[100.502092,6.5],[100.501904,6.500251],[100.50168,6.5005],[100.501441,6.500933],[100.501218,6.501423],[100.500964,6.501782],[100.500769,6.502222],[100.500687,6.50263],[100.500614,6.50302],[100.500644,6.503426],[100.500529,6.503903],[100.500284,6.504428],[100.500195,6.505101],[100.500147,6.505491],[100.5,6.505701],[100.499622,6.506366],[100.499297,6.506712],[100.499164,6.506717],[100.498765,6.506195],[100.498507,6.50599],[100.498211,6.506098],[100.497894,6.505912],[100.497682,6.505616],[100.497478,6.505509],[100.497271,6.505542],[100.496955,6.505693],[100.49652,6.505759],[100.496378,6.505817],[100.495644,6.506489],[100.495383,6.506822],[100.495122,6.5072],[100.494891,6.50745],[100.494512,6.50772],[100.494301,6.508026],[100.494032,6.508455],[100.493664,6.509231],[100.493597,6.509358],[100.493577,6.509762],[100.493439,6.510163],[100.493224,6.51054],[100.492972,6.510801],[100.492924,6.511691],[100.49293,6.512104],[100.492948,6.512713],[100.492795,6.513143],[100.492952,6.513518],[100.492922,6.514501],[100.492862,6.515651],[100.49298,6.516301],[100.492824,6.516664],[100.492973,6.516925],[100.493281,6.516833],[100.493771,6.517129],[100.494477,6.517368],[100.494715,6.517589],[100.495145,6.517808],[100.495632,6.518065],[100.495937,6.518115],[100.495874,6.518512],[100.495893,6.519208],[100.496018,6.519972],[100.49593,6.520276],[100.496097,6.520839],[100.496289,6.521357],[100.495933,6.522069],[100.495101,6.522159],[100.494709,6.522628],[100.494256,6.523264],[100.494154,6.523418],[100.49386,6.524029],[100.49355,6.523701],[100.493285,6.523802],[100.49265,6.523971],[100.491837,6.524203],[100.49184,6.524518],[100.49056,6.52487],[100.49025,6.525697],[100.489893,6.525685],[100.48944,6.525456],[100.489138,6.525461],[100.488905,6.524834],[100.488595,6.524225],[100.488672,6.52394],[100.488362,6.523603],[100.487948,6.523468],[100.487523,6.523072],[100.487288,6.522726],[100.487162,6.522668],[100.486926,6.52256],[100.486392,6.522571],[100.486074,6.522693],[100.48541,6.522759],[100.485042,6.522949],[100.48456,6.523059],[100.484025,6.522857],[100.483539,6.523035],[100.483091,6.522964],[100.482627,6.523982],[100.482129,6.524185],[100.481464,6.523953],[100.480898,6.523101],[100.480542,6.52298],[100.48,6.523056],[100.479308,6.523393],[100.478976,6.523753],[100.478703,6.523731],[100.478044,6.523802],[100.477483,6.523882],[100.476972,6.524069],[100.476575,6.523745],[100.475663,6.52361],[100.475497,6.523286],[100.474739,6.523366],[100.474201,6.522872],[100.473129,6.522767],[100.472517,6.522112],[100.472168,6.521347],[100.472051,6.520852],[100.471436,6.520577],[100.471057,6.520607],[100.470684,6.520504],[100.470026,6.52067],[100.469654,6.520864],[100.469408,6.520798],[100.468911,6.520886],[100.468286,6.521186],[100.467906,6.521573],[100.46743,6.521694],[100.467719,6.522712],[100.467625,6.523002],[100.467919,6.523403],[100.46792,6.523752],[100.467628,6.52411],[100.467573,6.524482],[100.467273,6.524847],[100.466943,6.524942],[100.466281,6.524864],[100.465965,6.524935],[100.465437,6.524843],[100.465133,6.524905],[100.464917,6.524959],[100.464541,6.524991],[100.464038,6.525141],[100.46388,6.525399],[100.463601,6.525488],[100.46261,6.525158],[100.462219,6.525566],[100.462131,6.526042],[100.461922,6.526183],[100.461924,6.526704],[100.461612,6.527186],[100.461388,6.527663],[100.461268,6.527842],[100.461077,6.528205],[100.460899,6.528533],[100.460797,6.528699],[100.460704,6.529164],[100.460561,6.529506],[100.460371,6.530182],[100.460251,6.530665],[100.460173,6.530931],[100.46029,6.531191],[100.459494,6.531399],[100.45906,6.531382],[100.458348,6.53175],[100.457912,6.532038],[100.457585,6.532459],[100.457216,6.532386],[100.45621,6.531371],[100.456175,6.531118],[100.456178,6.53067],[100.455959,6.530262],[100.455928,6.529982],[100.455792,6.529501],[100.455779,6.529322],[100.455676,6.529095],[100.455402,6.528895],[100.454351,6.528777],[100.454091,6.528715],[100.453849,6.528573],[100.453834,6.528396],[100.453918,6.528246],[100.454136,6.528017],[100.454165,6.527466],[100.453736,6.526907],[100.453014,6.526956],[100.452677,6.526864],[100.452418,6.526925],[100.451955,6.526885],[100.451367,6.526886],[100.450903,6.526332],[100.449784,6.52634],[100.449063,6.526692],[100.448642,6.526694],[100.448033,6.526196],[100.447288,6.52645],[100.446635,6.526158],[100.446252,6.526201],[100.445665,6.526413],[100.445387,6.526647],[100.445179,6.527003],[100.445224,6.527185],[100.445205,6.527329],[100.444827,6.527508],[100.444116,6.527189],[100.44365,6.527488],[100.443271,6.527597],[100.442902,6.527304],[100.442865,6.526716],[100.442725,6.526422],[100.441905,6.526196],[100.441174,6.526431],[100.440886,6.526908],[100.440962,6.527235],[100.440059,6.527191],[100.43971,6.527169],[100.439498,6.52709],[100.439227,6.526586],[100.438908,6.526046],[100.438441,6.525694],[100.438107,6.525732],[100.437847,6.52514],[100.437398,6.524945],[100.437063,6.524559],[100.436565,6.524219],[100.436155,6.523852],[100.435722,6.523886],[100.43519,6.524102],[100.434783,6.523871],[100.434317,6.523515],[100.433841,6.523144],[100.433532,6.52315],[100.432866,6.523008],[100.432645,6.522579],[100.432075,6.522492],[100.431543,6.52261],[100.431075,6.522857],[100.430898,6.523453],[100.430864,6.523932],[100.430466,6.523855],[100.430091,6.5237],[100.429752,6.523362],[100.428754,6.523058],[100.428147,6.522787],[100.427768,6.522423],[100.427832,6.522089],[100.427515,6.521243],[100.427068,6.520582],[100.426669,6.520315],[100.425945,6.520312],[100.425402,6.520037],[100.425288,6.519731],[100.425363,6.519001],[100.424762,6.518468],[100.423995,6.518114],[100.423643,6.517619],[100.423382,6.517559],[100.422742,6.518],[100.422285,6.517823],[100.421786,6.518072],[100.4215,6.518099],[100.420815,6.517981],[100.420559,6.518182],[100.420066,6.51813],[100.419973,6.518665],[100.419619,6.5191],[100.419293,6.519117],[100.41913,6.519098],[100.418713,6.518953],[100.418292,6.518735],[100.41764,6.519106],[100.417424,6.519461],[100.417348,6.520188],[100.417085,6.520602],[100.416243,6.52134],[100.416363,6.521938],[100.416511,6.52236],[100.416491,6.523077],[100.416347,6.523326],[100.415994,6.523465],[100.41523,6.52344],[100.414897,6.523624],[100.414171,6.523332],[100.413543,6.52327],[100.413127,6.522981],[100.412421,6.522919],[100.411783,6.522672],[100.411322,6.522812],[100.410765,6.52342],[100.41065,6.524441],[100.410279,6.524819],[100.409947,6.525362],[100.409731,6.525362],[100.409557,6.52597],[100.409184,6.526026],[100.408783,6.526367],[100.408413,6.527343],[100.408503,6.527912],[100.408359,6.528979],[100.40785,6.528714],[100.407347,6.528842],[100.406941,6.528868],[100.406367,6.529239],[100.405729,6.529579],[100.405087,6.529592],[100.405,6.529566],[100.405,6.714333],[100.50875,6.72125],[100.552154,6.716427],[100.55207,6.716281]]]}},{"type":"Feature","properties":{"station_index":3,"name":"X.113","code":"580221","weight":0.146445,"polygon_area_km2":224.7342},"geometry":{"type":"Polygon","coordinates":[[[100.404473,6.529406],[100.403705,6.529523],[100.403125,6.529943],[100.402862,6.530476],[100.402463,6.530779],[100.402381,6.5313],[100.401918,6.532021],[100.402133,6.53265],[100.402774,6.533369],[100.40328,6.534151],[100.40292,6.534685],[100.40289,6.535224],[100.40264,6.535854],[100.402506,6.536412],[100.402112,6.536485],[100.40195,6.536153],[100.40162,6.536081],[100.4014,6.53584],[100.401096,6.535404],[100.400042,6.534838],[100.399345,6.534762],[100.39886,6.534533],[100.398522,6.534269],[100.397967,6.534434],[100.39743,6.53403],[100.39663,6.53408],[100.395822,6.533907],[100.395203,6.534139],[100.394603,6.534074],[100.394247,6.534355],[100.393608,6.534759],[100.393118,6.534627],[100.391678,6.534692],[100.391266,6.535062],[100.390582,6.535143],[100.390214,6.535095],[100.389527,6.535127],[100.389132,6.53497],[100.388229,6.534991],[100.387933,6.535401],[100.387908,6.535809],[100.387711,6.536745],[100.387649,6.537684],[100.387535,6.538387],[100.387375,6.538768],[100.387133,6.539077],[100.386512,6.538891],[100.3861,6.53914],[100.385564,6.538997],[100.385195,6.538683],[100.384795,6.538666],[100.384472,6.538433],[100.384042,6.538813],[100.383904,6.539106],[100.383352,6.5398],[100.383651,6.540472],[100.383239,6.540703],[100.382625,6.541233],[100.382266,6.541646],[100.381631,6.541941],[100.381218,6.541868],[100.380761,6.542075],[100.379988,6.542086],[100.379487,6.542178],[100.378986,6.542196],[100.378679,6.542402],[100.378161,6.542503],[100.377485,6.542925],[100.376791,6.542886],[100.376528,6.543175],[100.375992,6.543457],[100.374789,6.543691],[100.374517,6.544426],[100.374271,6.544732],[100.373701,6.544931],[100.373315,6.545204],[100.37284,6.545115],[100.372698,6.544769],[100.372812,6.544546],[100.372442,6.544341],[100.37223,6.543954],[100.371904,6.543601],[100.371191,6.543364],[100.370819,6.542306],[100.370168,6.541912],[100.370242,6.541576],[100.369726,6.541061],[100.369686,6.5406],[100.369205,6.539925],[100.368961,6.539159],[100.368295,6.539091],[100.36754,6.539456],[100.367013,6.539605],[100.366565,6.539755],[100.366061,6.540134],[100.366067,6.540431],[100.365703,6.540798],[100.365854,6.541531],[100.365709,6.542199],[100.365472,6.542849],[100.364901,6.543082],[100.364886,6.543661],[100.364711,6.543992],[100.364351,6.544355],[100.364168,6.544611],[100.363681,6.545161],[100.363162,6.54515],[100.362792,6.544842],[100.362382,6.545154],[100.361741,6.545288],[100.361385,6.545653],[100.361295,6.546266],[100.360648,6.547193],[100.360123,6.547841],[100.359803,6.548126],[100.359867,6.549089],[100.359388,6.550569],[100.359175,6.551569],[100.359352,6.552153],[100.359358,6.552515],[100.359187,6.55273],[100.359179,6.553163],[100.358356,6.55386],[100.358657,6.554811],[100.35897,6.555041],[100.35902,6.555705],[100.359161,6.556057],[100.359464,6.556114],[100.359829,6.556356],[100.36035,6.556944],[100.360154,6.557112],[100.359949,6.557231],[100.359816,6.557286],[100.359574,6.557126],[100.359091,6.557428],[100.358801,6.557367],[100.358221,6.557504],[100.357946,6.558004],[100.357362,6.558265],[100.356824,6.558611],[100.35632,6.559136],[100.356382,6.559527],[100.356622,6.560099],[100.356446,6.560281],[100.356372,6.560517],[100.356168,6.560915],[100.355988,6.560969],[100.355721,6.561435],[100.355436,6.561667],[100.355137,6.561585],[100.354847,6.561673],[100.354571,6.561867],[100.354008,6.561745],[100.353832,6.561548],[100.353581,6.561458],[100.353683,6.562045],[100.353689,6.562288],[100.353751,6.562568],[100.353624,6.562812],[100.353839,6.563095],[100.354118,6.563737],[100.353916,6.563939],[100.353825,6.564194],[100.353953,6.564437],[100.354112,6.564494],[100.354116,6.564639],[100.354293,6.564824],[100.354207,6.565084],[100.354246,6.565222],[100.354194,6.565754],[100.354089,6.565886],[100.354042,6.566236],[100.354144,6.566696],[100.354108,6.567776],[100.353955,6.568049],[100.353938,6.568448],[100.353766,6.568658],[100.353636,6.568894],[100.35365,6.569232],[100.35313,6.569489],[100.353184,6.569769],[100.353092,6.570017],[100.352936,6.570977],[100.352757,6.571311],[100.352617,6.571658],[100.352424,6.571856],[100.351978,6.572463],[100.351609,6.572662],[100.351454,6.572975],[100.351217,6.573009],[100.350903,6.573014],[100.350577,6.572893],[100.350359,6.573006],[100.350047,6.573019],[100.349683,6.572883],[100.349285,6.572785],[100.348961,6.572848],[100.348644,6.573004],[100.348247,6.573036],[100.348007,6.572646],[100.347669,6.572485],[100.34747,6.572293],[100.347165,6.572213],[100.346884,6.572169],[100.34656,6.572195],[100.346361,6.572127],[100.346314,6.571817],[100.345862,6.571315],[100.345664,6.571297],[100.345433,6.571105],[100.345226,6.57118],[100.345101,6.57141],[100.344883,6.571616],[100.344844,6.571889],[100.344805,6.57202],[100.344547,6.572113],[100.344369,6.572362],[100.344198,6.573015],[100.343927,6.573121],[100.343722,6.573302],[100.343498,6.573408],[100.343432,6.573638],[100.343201,6.573775],[100.343168,6.574023],[100.342818,6.574303],[100.342751,6.574357],[100.342592,6.574354],[100.342384,6.574566],[100.342361,6.574578],[100.341941,6.574809],[100.341587,6.575043],[100.341479,6.575484],[100.341264,6.575862],[100.341118,6.57607],[100.341251,6.576268],[100.341606,6.576168],[100.341711,6.576263],[100.341927,6.576552],[100.341994,6.576763],[100.342125,6.577637],[100.342156,6.577844],[100.342224,6.578588],[100.341982,6.57957],[100.341977,6.579577],[100.341744,6.580011],[100.34157,6.580241],[100.341284,6.580513],[100.340708,6.580468],[100.340501,6.5809],[100.340353,6.581189],[100.340062,6.58127],[100.339731,6.58147],[100.339251,6.581369],[100.338952,6.58141],[100.338706,6.581215],[100.338426,6.58138],[100.338141,6.581452],[100.3378,6.581552],[100.337622,6.581752],[100.337371,6.581888],[100.33695,6.582116],[100.33668,6.581977],[100.336482,6.582158],[100.336194,6.582293],[100.33588,6.582256],[100.335775,6.582349],[100.336138,6.58254],[100.336604,6.583154],[100.336684,6.583407],[100.336551,6.583583],[100.336408,6.583837],[100.335821,6.584189],[100.335432,6.584556],[100.33513,6.584609],[100.335019,6.58487],[100.334686,6.585057],[100.334368,6.585096],[100.333901,6.584911],[100.333447,6.584599],[100.333263,6.584287],[100.333056,6.584093],[100.332857,6.584049],[100.332746,6.584176],[100.332602,6.584154],[100.332301,6.584431],[100.331633,6.584455],[100.330972,6.584218],[100.330488,6.584473],[100.330169,6.584422],[100.329923,6.5844],[100.329701,6.58455],[100.329362,6.584542],[100.328988,6.584394],[100.328758,6.584462],[100.328503,6.584358],[100.327916,6.584859],[100.327661,6.584845],[100.327479,6.585032],[100.327129,6.585115],[100.326645,6.585355],[100.32612,6.585573],[100.325762,6.585536],[100.32521,6.585998],[100.325001,6.586329],[100.325633,6.587315],[100.325642,6.587576],[100.325326,6.588465],[100.325272,6.588845],[100.324731,6.589063],[100.324422,6.589479],[100.323659,6.589401],[100.323491,6.589387],[100.323286,6.589684],[100.323227,6.590173],[100.323178,6.590578],[100.322805,6.590915],[100.322177,6.591147],[100.32135,6.590993],[100.320936,6.591024],[100.320689,6.59131],[100.320391,6.591664],[100.319663,6.593173],[100.319785,6.593963],[100.319643,6.594321],[100.319357,6.59471],[100.318572,6.595495],[100.318201,6.596143],[100.318076,6.597068],[100.317634,6.597945],[100.317715,6.598452],[100.317533,6.598773],[100.317591,6.599504],[100.317775,6.599995],[100.317689,6.600339],[100.317398,6.601614],[100.317133,6.60187],[100.317022,6.602162],[100.317151,6.602557],[100.316842,6.60296],[100.316791,6.603288],[100.31662,6.603509],[100.316367,6.603533],[100.315967,6.603993],[100.315868,6.604169],[100.315333,6.604151],[100.314887,6.604022],[100.314652,6.603814],[100.314187,6.603841],[100.313896,6.60357],[100.313514,6.60369],[100.312845,6.603371],[100.312423,6.603234],[100.312047,6.603449],[100.311752,6.603516],[100.311505,6.603752],[100.310755,6.603955],[100.310469,6.603844],[100.310062,6.604127],[100.309553,6.604098],[100.309282,6.604161],[100.309283,6.604537],[100.308954,6.604641],[100.30878,6.604877],[100.308526,6.605002],[100.308213,6.605218],[100.30744,6.605505],[100.307263,6.605871],[100.30688,6.605914],[100.306883,6.605892],[100.306715,6.605709],[100.306394,6.605743],[100.305626,6.605091],[100.305354,6.605236],[100.305216,6.605596],[100.3056,6.60607],[100.306149,6.608016],[100.305801,6.608194],[100.305733,6.608625],[100.305552,6.608933],[100.305686,6.609527],[100.305541,6.610073],[100.305969,6.611013],[100.306986,6.610853],[100.307438,6.610525],[100.307794,6.610746],[100.308505,6.610673],[100.309171,6.610851],[100.30977,6.610745],[100.310091,6.610874],[100.310524,6.611148],[100.31063,6.611524],[100.310871,6.612036],[100.311656,6.612432],[100.311747,6.612629],[100.312246,6.612855],[100.313833,6.613257],[100.314289,6.613514],[100.314828,6.613355],[100.316111,6.613199],[100.316435,6.613341],[100.316769,6.613485],[100.316724,6.614305],[100.317143,6.614602],[100.317661,6.614772],[100.318038,6.614972],[100.318031,6.615244],[100.318476,6.615259],[100.318888,6.6159],[100.319298,6.615747],[100.320043,6.616313],[100.32223,6.618137],[100.322445,6.618383],[100.323092,6.619124],[100.323538,6.619475],[100.324105,6.620034],[100.324435,6.620382],[100.324815,6.620599],[100.325163,6.62104],[100.325507,6.6211],[100.325808,6.621287],[100.326168,6.621293],[100.326207,6.622391],[100.325931,6.622909],[100.325645,6.623329],[100.325544,6.623604],[100.324751,6.624067],[100.324414,6.624384],[100.323894,6.624596],[100.323645,6.625097],[100.323465,6.625614],[100.323277,6.625928],[100.32369,6.626811],[100.324188,6.627441],[100.323796,6.628064],[100.323495,6.628817],[100.323016,6.629319],[100.322836,6.629645],[100.322458,6.629872],[100.322292,6.630053],[100.322567,6.630468],[100.321957,6.631035],[100.321719,6.631916],[100.321774,6.634274],[100.321455,6.63452],[100.321428,6.635701],[100.321024,6.636092],[100.320255,6.636084],[100.319994,6.635588],[100.319641,6.63557],[100.319143,6.634904],[100.318343,6.63494],[100.317742,6.635235],[100.31674,6.634883],[100.317065,6.63589],[100.31641,6.636642],[100.31687,6.637025],[100.317062,6.637735],[100.317318,6.638015],[100.316978,6.638455],[100.317487,6.639244],[100.317384,6.63993],[100.318387,6.640482],[100.319187,6.640675],[100.319985,6.641036],[100.320435,6.641508],[100.321055,6.642018],[100.321211,6.642101],[100.321271,6.642133],[100.321901,6.641974],[100.322043,6.64252],[100.322162,6.643352],[100.322185,6.644322],[100.322315,6.645311],[100.322017,6.645751],[100.322333,6.6459],[100.32239,6.646863],[100.321831,6.647096],[100.321934,6.647771],[100.322152,6.648409],[100.32247,6.64905],[100.322298,6.649682],[100.32139,6.650995],[100.320995,6.651446],[100.320412,6.652069],[100.319973,6.652701],[100.319924,6.652814],[100.319566,6.653987],[100.321038,6.655024],[100.322559,6.655669],[100.323786,6.656839],[100.324436,6.657925],[100.324599,6.658538],[100.325098,6.659045],[100.326113,6.659615],[100.326767,6.661498],[100.326586,6.66233],[100.32652,6.662505],[100.32655,6.662565],[100.32761,6.663975],[100.32692,6.664872],[100.326109,6.665349],[100.325175,6.665509],[100.324756,6.66545],[100.323965,6.665351],[100.323165,6.665325],[100.32259,6.665268],[100.322304,6.665303],[100.321365,6.665427],[100.321075,6.665457],[100.320783,6.665186],[100.320408,6.664794],[100.320187,6.664603],[100.319583,6.664503],[100.319335,6.664433],[100.318913,6.664393],[100.31846,6.665203],[100.318147,6.665505],[100.317595,6.666041],[100.317178,6.666485],[100.317077,6.666592],[100.316805,6.666979],[100.316515,6.667512],[100.315773,6.667755],[100.315715,6.667782],[100.315629,6.667741],[100.315089,6.667355],[100.314927,6.667264],[100.314545,6.66712],[100.313992,6.666763],[100.313029,6.666328],[100.312008,6.666622],[100.311626,6.66682],[100.311156,6.667035],[100.311059,6.667042],[100.310849,6.666941],[100.310439,6.666748],[100.310334,6.666717],[100.309619,6.666697],[100.309079,6.666682],[100.308903,6.666743],[100.308094,6.667263],[100.307953,6.667353],[100.307441,6.667599],[100.30683,6.66783],[100.306616,6.667978],[100.306173,6.668286],[100.306009,6.668566],[100.306598,6.66978],[100.306742,6.669945],[100.306243,6.670522],[100.30579,6.670941],[100.304927,6.671676],[100.304851,6.672474],[100.304678,6.672887],[100.304747,6.6734],[100.304403,6.674098],[100.303957,6.674642],[100.303814,6.674933],[100.303659,6.67529],[100.303597,6.675431],[100.303565,6.675612],[100.30346,6.676025],[100.303359,6.676338],[100.303316,6.676473],[100.303213,6.677008],[100.303208,6.677188],[100.303104,6.677472],[100.303087,6.677683],[100.303099,6.678031],[100.303047,6.678495],[100.303076,6.678705],[100.302868,6.678953],[100.302794,6.679042],[100.302451,6.679416],[100.302302,6.679555],[100.302054,6.679786],[100.301868,6.679895],[100.301575,6.679991],[100.301343,6.680098],[100.300994,6.680269],[100.300762,6.680395],[100.300564,6.680444],[100.300539,6.68041],[100.300427,6.680264],[100.300261,6.680012],[100.300147,6.679923],[100.299853,6.679724],[100.299785,6.679683],[100.29954,6.679535],[100.299406,6.679464],[100.299274,6.679375],[100.299104,6.679218],[100.298954,6.679071],[100.298897,6.678964],[100.298862,6.678897],[100.298758,6.678705],[100.298618,6.678454],[100.298518,6.678323],[100.298398,6.678227],[100.297913,6.678096],[100.297514,6.67805],[100.297342,6.678053],[100.297191,6.678119],[100.297008,6.678248],[100.296688,6.67851],[100.296293,6.678713],[100.295954,6.678901],[100.295816,6.678972],[100.295532,6.679117],[100.295102,6.679273],[100.294863,6.679366],[100.294709,6.679536],[100.294428,6.679741],[100.294327,6.679881],[100.294169,6.680183],[100.294091,6.680543],[100.294062,6.680761],[100.29401,6.680947],[100.293696,6.682038],[100.293667,6.682679],[100.293301,6.683085],[100.292945,6.683502],[100.292787,6.683752],[100.292515,6.684059],[100.292403,6.684745],[100.292276,6.685201],[100.292035,6.685664],[100.292011,6.685816],[100.291892,6.685936],[100.291656,6.686091],[100.291536,6.686231],[100.291405,6.686408],[100.29124,6.686774],[100.291169,6.686906],[100.290983,6.687662],[100.290727,6.688146],[100.290575,6.688575],[100.290344,6.688834],[100.290537,6.688969],[100.290732,6.689532],[100.290709,6.689894],[100.290571,6.690276],[100.290134,6.690702],[100.290233,6.691035],[100.290217,6.691595],[100.290475,6.691966],[100.290799,6.692459],[100.290993,6.69272],[100.291083,6.693233],[100.291156,6.693697],[100.291053,6.694004],[100.291043,6.694383],[100.291041,6.694887],[100.29094,6.695149],[100.291016,6.6953],[100.291339,6.695652],[100.291559,6.695782],[100.291726,6.695827],[100.291975,6.695973],[100.291904,6.696219],[100.291928,6.696772],[100.291687,6.697175],[100.291656,6.69783],[100.291766,6.698577],[100.291558,6.699132],[100.291869,6.699722],[100.29217,6.699963],[100.292654,6.700254],[100.292741,6.700586],[100.292882,6.701079],[100.293346,6.701573],[100.293633,6.701917],[100.293773,6.702058],[100.2944,6.702475],[100.294648,6.702736],[100.294736,6.703045],[100.294859,6.703214],[100.295161,6.703647],[100.295296,6.703918],[100.295285,6.704074],[100.29526,6.704442],[100.294965,6.70472],[100.294756,6.704967],[100.294654,6.70528],[100.294563,6.705571],[100.294481,6.705826],[100.29437,6.706249],[100.294123,6.706607],[100.29363,6.707427],[100.29309,6.707828],[100.292275,6.708417],[100.29213,6.708604],[100.291912,6.708969],[100.291641,6.709329],[100.290713,6.709813],[100.290487,6.70988],[100.290279,6.709928],[100.290016,6.709921],[100.289933,6.709893],[100.289527,6.709577],[100.289354,6.709321],[100.28863,6.708907],[100.288505,6.708838],[100.2882,6.708601],[100.288041,6.708442],[100.287923,6.708303],[100.287446,6.708028],[100.287123,6.707843],[100.286824,6.707685],[100.286678,6.707678],[100.286412,6.707655],[100.286151,6.707639],[100.28607,6.707899],[100.285798,6.707919],[100.284949,6.708547],[100.284293,6.708749],[100.283335,6.708285],[100.283012,6.708193],[100.282503,6.707571],[100.282137,6.707418],[100.281898,6.707226],[100.281512,6.707436],[100.280978,6.707156],[100.280733,6.706938],[100.280075,6.706857],[100.279299,6.706791],[100.278944,6.706582],[100.27798,6.706758],[100.277511,6.707083],[100.277324,6.70703],[100.277334,6.706562],[100.277399,6.706299],[100.277309,6.706009],[100.277094,6.705937],[100.27677,6.705971],[100.276419,6.705959],[100.275775,6.706027],[100.274767,6.70597],[100.274721,6.705783],[100.274837,6.705454],[100.275073,6.704846],[100.275227,6.70441],[100.274881,6.7039],[100.273521,6.704],[100.273032,6.704012],[100.272453,6.703943],[100.271354,6.703732],[100.270964,6.703231],[100.270641,6.70298],[100.270292,6.702516],[100.269916,6.702128],[100.26966,6.701852],[100.269097,6.70169],[100.268407,6.701229],[100.268338,6.700738],[100.268132,6.700337],[100.267729,6.70003],[100.267239,6.69946],[100.266722,6.699028],[100.26634,6.699048],[100.265971,6.699005],[100.265261,6.698982],[100.264755,6.699148],[100.264023,6.6992],[100.263954,6.70082],[100.263405,6.701275],[100.263275,6.701847],[100.263267,6.702069],[100.263204,6.702846],[100.2631,6.703138],[100.262767,6.703991],[100.262524,6.705097],[100.261934,6.705356],[100.261537,6.705233],[100.261985,6.705983],[100.261458,6.707325],[100.259893,6.708453],[100.259724,6.709063],[100.259155,6.709824],[100.258493,6.710372],[100.257576,6.711409],[100.257289,6.711464],[100.257126,6.711041],[100.257042,6.709308],[100.256839,6.708571],[100.256664,6.708299],[100.256282,6.708188],[100.256036,6.708336],[100.255445,6.708837],[100.254934,6.709375],[100.254144,6.709173],[100.253699,6.708732],[100.25288,6.708677],[100.252405,6.708161],[100.252444,6.707809],[100.252473,6.707559],[100.252817,6.70683],[100.253182,6.70617],[100.253151,6.704893],[100.253127,6.703821],[100.253063,6.703505],[100.252916,6.703485],[100.252529,6.70346],[100.252066,6.703573],[100.251583,6.703109],[100.251312,6.703067],[100.250813,6.703036],[100.2505,6.702462],[100.25045,6.701815],[100.25,6.700883],[100.249755,6.699725],[100.249591,6.698312],[100.24897,6.697499],[100.248202,6.697267],[100.24785,6.697112],[100.247377,6.696815],[100.246769,6.695647],[100.245964,6.695716],[100.245324,6.696041],[100.244903,6.69611],[100.243943,6.696136],[100.243682,6.695668],[100.243569,6.695105],[100.243485,6.694689],[100.24345,6.694452],[100.243549,6.693973],[100.243583,6.693465],[100.242619,6.692862],[100.241725,6.692879],[100.241162,6.692427],[100.240599,6.692248],[100.239392,6.692795],[100.238568,6.692599],[100.237995,6.692352],[100.237532,6.69249],[100.236992,6.692951],[100.236826,6.693358],[100.236189,6.693551],[100.235965,6.69362],[100.235793,6.693698],[100.235403,6.693841],[100.23494,6.69371],[100.234638,6.693555],[100.234252,6.69339],[100.233913,6.693054],[100.233739,6.693288],[100.233235,6.69365],[100.233098,6.694063],[100.233133,6.694236],[100.232868,6.6945],[100.232608,6.69454],[100.232379,6.694569],[100.23187,6.694917],[100.231292,6.694811],[100.230936,6.694236],[100.230666,6.694143],[100.230028,6.693887],[100.229796,6.693708],[100.229655,6.693636],[100.229539,6.693596],[100.229413,6.693559],[100.229252,6.693518],[100.229064,6.693443],[100.22889,6.693389],[100.228792,6.69341],[100.228628,6.693653],[100.228561,6.693722],[100.228358,6.693942],[100.228174,6.694185],[100.227946,6.694442],[100.227695,6.694642],[100.227317,6.695171],[100.227245,6.695583],[100.227169,6.695914],[100.227118,6.696107],[100.226995,6.696224],[100.226824,6.696315],[100.226612,6.696465],[100.225884,6.696834],[100.225543,6.696966],[100.224977,6.697035],[100.224432,6.697013],[100.22398,6.697141],[100.223999,6.697541],[100.224038,6.697745],[100.223911,6.698128],[100.223482,6.698631],[100.223043,6.69873],[100.222685,6.698732],[100.222323,6.699047],[100.222043,6.699267],[100.221581,6.699462],[100.220982,6.699943],[100.220575,6.700383],[100.220102,6.700971],[100.219696,6.701616],[100.219389,6.701805],[100.21901,6.702003],[100.218801,6.702167],[100.218564,6.702441],[100.218437,6.702888],[100.21835,6.703277],[100.218688,6.704751],[100.218467,6.705476],[100.218552,6.705848],[100.218826,6.706281],[100.218992,6.706557],[100.218941,6.70695],[100.219018,6.707586],[100.218967,6.708371],[100.218968,6.708764],[100.21888,6.708978],[100.2188,6.709158],[100.218709,6.70928],[100.218561,6.709574],[100.218442,6.7097],[100.218283,6.70989],[100.218072,6.710199],[100.218002,6.710344],[100.217863,6.710761],[100.21779,6.710991],[100.217462,6.711246],[100.216853,6.711681],[100.216202,6.712452],[100.215728,6.71281],[100.215862,6.713263],[100.216033,6.71364],[100.216079,6.714558],[100.215639,6.71518],[100.215155,6.715816],[100.215091,6.715915],[100.214905,6.71623],[100.214582,6.716521],[100.214335,6.716778],[100.214327,6.717186],[100.214885,6.718735],[100.214821,6.718861],[100.214154,6.719186],[100.213841,6.719413],[100.213284,6.719711],[100.21288,6.720016],[100.212351,6.720445],[100.211854,6.720473],[100.211317,6.720261],[100.210746,6.720136],[100.21058,6.719973],[100.210075,6.719672],[100.209219,6.719735],[100.208126,6.719478],[100.207503,6.719724],[100.207055,6.720044],[100.206548,6.720485],[100.20592,6.720761],[100.205633,6.720976],[100.205377,6.721556],[100.205128,6.721991],[100.205206,6.722549],[100.204966,6.723079],[100.204771,6.723144],[100.204395,6.723524],[100.204442,6.723999],[100.204651,6.724251],[100.204772,6.724511],[100.204894,6.724953],[100.204906,6.725485],[100.205137,6.725803],[100.205158,6.726118],[100.204869,6.725885],[100.204507,6.725692],[100.204174,6.725703],[100.203782,6.725604],[100.203512,6.725392],[100.203066,6.725512],[100.202548,6.725343],[100.202274,6.725543],[100.202222,6.725263],[100.201603,6.724404],[100.20123,6.724009],[100.20088,6.723801],[100.200395,6.723834],[100.200081,6.723493],[100.199562,6.723077],[100.199292,6.722462],[100.199231,6.721925],[100.199055,6.721687],[100.19868,6.721389],[100.198187,6.721762],[100.197553,6.7222],[100.197004,6.722451],[100.196551,6.722326],[100.196239,6.721161],[100.195988,6.720653],[100.195515,6.720545],[100.195095,6.720364],[100.194699,6.720215],[100.194537,6.720021],[100.194268,6.719809],[100.193797,6.719699],[100.193425,6.719606],[100.193261,6.719565],[100.19311,6.719504],[100.192563,6.719203],[100.192264,6.718815],[100.192176,6.718811],[100.191733,6.719085],[100.191377,6.719082],[100.191268,6.719037],[100.191002,6.718779],[100.19065,6.718641],[100.1906,6.718944],[100.190613,6.719479],[100.190555,6.71977],[100.190472,6.719984],[100.190472,6.720174],[100.190211,6.720359],[100.18998,6.720461],[100.189789,6.720532],[100.189707,6.720907],[100.189767,6.721234],[100.189887,6.721626],[100.189787,6.722006],[100.189799,6.722173],[100.189901,6.722303],[100.190187,6.722529],[100.190342,6.722724],[100.190592,6.723074],[100.190658,6.723282],[100.190575,6.723401],[100.190421,6.723538],[100.190302,6.723628],[100.190077,6.723747],[100.189881,6.723843],[100.18956,6.723826],[100.189245,6.723868],[100.188817,6.723869],[100.188436,6.723882],[100.187966,6.723877],[100.188116,6.724097],[100.188253,6.724263],[100.188491,6.724339],[100.188723,6.724351],[100.188919,6.72441],[100.189044,6.724588],[100.189277,6.724991],[100.189516,6.725258],[100.189677,6.725418],[100.189796,6.725535],[100.189606,6.725579],[100.189404,6.725663],[100.189243,6.725746],[100.188768,6.725908],[100.188602,6.725944],[100.188305,6.726022],[100.188067,6.726106],[100.187864,6.72628],[100.187675,6.726593],[100.187569,6.72682],[100.187588,6.72707],[100.187648,6.727373],[100.18778,6.727949],[100.187858,6.728264],[100.187918,6.728579],[100.188134,6.729143],[100.18817,6.729351],[100.188289,6.729487],[100.188403,6.72963],[100.188474,6.729766],[100.188576,6.730105],[100.188612,6.730378],[100.188774,6.73096],[100.188888,6.7314],[100.188919,6.731697],[100.188925,6.731946],[100.188896,6.73219],[100.188956,6.732321],[100.188927,6.732558],[100.189022,6.732677],[100.189059,6.732933],[100.189113,6.733247],[100.189102,6.733461],[100.188965,6.733646],[100.188895,6.733908],[100.189103,6.734151],[100.189211,6.734293],[100.189366,6.734489],[100.189485,6.734608],[100.18961,6.734673],[100.189647,6.734688],[100.189616,6.734809],[100.189587,6.734928],[100.189587,6.735113],[100.189629,6.735315],[100.18957,6.735552],[100.189476,6.735802],[100.189363,6.735933],[100.189346,6.736343],[100.189394,6.736504],[100.189508,6.736605],[100.189662,6.736687],[100.190055,6.736811],[100.190281,6.736894],[100.190603,6.737036],[100.190662,6.737089],[100.190692,6.737184],[100.19074,6.737362],[100.190758,6.737594],[100.190771,6.737808],[100.190825,6.738016],[100.190825,6.738129],[100.190879,6.738289],[100.190943,6.73856],[100.210526,6.740263],[100.405,6.714333],[100.405,6.529566],[100.404473,6.529406]],[[100.319549,6.63835],[100.319609,6.63835],[100.319551,6.638357],[100.319549,6.63835]]]}},{"type":"Feature","properties":{"station_index":4,"name":"Khlong Hoi Khong","code":"580352","weight":0.027129,"polygon_area_km2":41.6324},"geometry":{"type":"Polygon","coordinates":[[[100.324102,6.922487],[100.325885,6.922386],[100.327886,6.922273],[100.329527,6.922773],[100.3325,6.923819],[100.341092,6.926842],[100.342733,6.927341],[100.344803,6.926913],[100.346731,6.927199],[100.347491,6.927373],[100.348387,6.927578],[100.348666,6.927458],[100.348928,6.927232],[100.34926,6.924944],[100.349273,6.924852],[100.349475,6.924353],[100.349606,6.924317],[100.350659,6.924322],[100.35195,6.924329],[100.352188,6.924281],[100.353616,6.923353],[100.353723,6.923199],[100.353795,6.922929],[100.35381,6.922922],[100.35381,6.922625],[100.353838,6.92234],[100.35391,6.922226],[100.354338,6.922169],[100.354609,6.922183],[100.355409,6.922069],[100.356208,6.921856],[100.356955,6.921524],[100.359826,6.921462],[100.362895,6.921128],[100.363466,6.921152],[100.363704,6.921271],[100.364442,6.921295],[100.366084,6.921081],[100.366655,6.920867],[100.366797,6.920765],[100.366988,6.920629],[100.36725,6.920272],[100.367797,6.919701],[100.368344,6.919344],[100.369296,6.919082],[100.370843,6.918987],[100.372485,6.918915],[100.374721,6.918773],[100.375887,6.91882],[100.376761,6.91895],[100.381669,6.919677],[100.38318,6.919935],[100.390592,6.9212],[100.392996,6.921699],[100.396232,6.922366],[100.403679,6.922699],[100.408962,6.922961],[100.410132,6.923113],[100.439,6.875],[100.41629,6.860806],[100.323653,6.922565],[100.324102,6.922487]]]}},{"type":"Feature","properties":{"station_index":5,"name":"X.90","code":"580421","weight":0.067319,"polygon_area_km2":103.3071},"geometry":{"type":"Polygon","coordinates":[[[100.536672,6.945701],[100.536957,6.944773],[100.536957,6.944202],[100.537029,6.943346],[100.537528,6.942346],[100.538171,6.941275],[100.538885,6.940348],[100.539884,6.939491],[100.540169,6.93892],[100.540526,6.93792],[100.541026,6.937207],[100.541454,6.936636],[100.541811,6.936207],[100.542097,6.935708],[100.542596,6.935208],[100.543096,6.934637],[100.543881,6.934066],[100.546023,6.932709],[100.547022,6.931781],[100.547665,6.931353],[100.548521,6.930925],[100.549592,6.930497],[100.551305,6.930282],[100.552305,6.929925],[100.554161,6.929426],[100.555374,6.928997],[100.556588,6.928426],[100.557516,6.927855],[100.558301,6.926713],[100.558515,6.926285],[100.559729,6.924786],[100.560371,6.923358],[100.560585,6.922573],[100.560514,6.921431],[100.5603,6.920289],[100.560228,6.915577],[100.560871,6.913864],[100.561442,6.912365],[100.562084,6.91108],[100.562584,6.907368],[100.562727,6.906155],[100.562727,6.904941],[100.563155,6.903656],[100.563726,6.902942],[100.564654,6.902157],[100.565011,6.901229],[100.565011,6.899445],[100.564654,6.898445],[100.564083,6.89766],[100.563512,6.896803],[100.56237,6.895947],[100.561299,6.895304],[100.560514,6.894662],[100.559871,6.893734],[100.559158,6.89302],[100.558515,6.892449],[100.557944,6.891878],[100.557159,6.891521],[100.55673,6.890879],[100.556588,6.890307],[100.556873,6.889023],[100.557587,6.88788],[100.558444,6.886595],[100.558729,6.886096],[100.559086,6.885453],[100.559757,6.884825],[100.560785,6.884254],[100.561699,6.884197],[100.56267,6.884026],[100.563526,6.884083],[100.564383,6.884026],[100.565354,6.883569],[100.566382,6.883283],[100.567638,6.883169],[100.569123,6.883226],[100.570722,6.88334],[100.571807,6.883512],[100.572892,6.883569],[100.573863,6.883911],[100.574776,6.883969],[100.576318,6.883169],[100.578203,6.881627],[100.579116,6.880314],[100.580259,6.878943],[100.58083,6.878029],[100.580966,6.87792],[100.581053,6.876964],[100.581053,6.876346],[100.580387,6.875489],[100.580163,6.875],[100.439,6.875],[100.410132,6.923113],[100.416076,6.923889],[100.416498,6.924056],[100.417456,6.924436],[100.420669,6.925554],[100.425999,6.927125],[100.431995,6.929623],[100.432487,6.929746],[100.432517,6.929753],[100.432566,6.929766],[100.432675,6.929761],[100.433565,6.929718],[100.434208,6.929718],[100.434517,6.92979],[100.434721,6.929911],[100.436541,6.930821],[100.439075,6.931371],[100.440686,6.931466],[100.442589,6.931847],[100.444779,6.932323],[100.445893,6.932088],[100.446819,6.932014],[100.448639,6.931872],[100.45435,6.932014],[100.458026,6.932264],[100.458659,6.93228],[100.46131,6.9328],[100.462702,6.933014],[100.463273,6.933049],[100.46413,6.932978],[100.467306,6.933264],[100.468448,6.933406],[100.471161,6.933656],[100.47291,6.933942],[100.475051,6.934299],[100.478371,6.934549],[100.482332,6.934549],[100.486794,6.934691],[100.487073,6.934651],[100.487992,6.934667],[100.489657,6.934964],[100.492513,6.935499],[100.497985,6.936511],[100.499948,6.93663],[100.5009,6.936749],[100.501495,6.936749],[100.502804,6.936749],[100.503399,6.936808],[100.504232,6.937165],[100.505243,6.937522],[100.506195,6.937938],[100.507503,6.938414],[100.507617,6.938465],[100.508313,6.939012],[100.50861,6.939086],[100.509157,6.939277],[100.509609,6.939491],[100.510299,6.939848],[100.510918,6.940181],[100.511066,6.940343],[100.511655,6.940621],[100.512011,6.940838],[100.512702,6.941061],[100.51294,6.941585],[100.51299,6.941833],[100.513465,6.942383],[100.513559,6.942418],[100.513964,6.942537],[100.514511,6.942679],[100.515058,6.942917],[100.515187,6.943066],[100.515486,6.943251],[100.515605,6.94356],[100.515745,6.943904],[100.516262,6.944294],[100.516594,6.944427],[100.517245,6.944644],[100.51829,6.94495],[100.52006,6.94575],[100.520488,6.946078],[100.520988,6.946378],[100.521602,6.946392],[100.522644,6.94625],[100.523401,6.946221],[100.523858,6.946349],[100.524257,6.946478],[100.524514,6.946478],[100.525128,6.946478],[100.525814,6.946535],[100.526485,6.946649],[100.527341,6.947006],[100.527612,6.947149],[100.527926,6.947392],[100.528341,6.947806],[100.528812,6.948191],[100.529154,6.948505],[100.529268,6.94859],[100.529597,6.948834],[100.531082,6.949433],[100.531738,6.949719],[100.532481,6.949962],[100.533409,6.950261],[100.533637,6.950276],[100.533772,6.950285],[100.533845,6.95034],[100.534104,6.950054],[100.534221,6.949664],[100.534247,6.949578],[100.53458,6.949102],[100.534913,6.948817],[100.535246,6.948151],[100.536672,6.945701]]]}},{"type":"Feature","properties":{"station_index":6,"name":"X.173A","code":"580521","weight":0.160172,"polygon_area_km2":245.7987},"geometry":{"type":"Polygon","coordinates":[[[100.579895,6.874415],[100.579864,6.873823],[100.579864,6.873205],[100.579578,6.872158],[100.57915,6.871158],[100.578769,6.870492],[100.578388,6.869588],[100.57815,6.868922],[100.578055,6.868398],[100.578055,6.867399],[100.578055,6.86659],[100.578388,6.86559],[100.578817,6.864734],[100.579102,6.864163],[100.579255,6.86375],[100.579388,6.863021],[100.57934,6.862164],[100.579245,6.861498],[100.579245,6.860832],[100.579245,6.860356],[100.579245,6.85988],[100.579864,6.858785],[100.580625,6.858167],[100.581386,6.857881],[100.582576,6.857548],[100.584004,6.857405],[100.584304,6.85736],[100.585633,6.856793],[100.586193,6.85612],[100.58673,6.855702],[100.587264,6.854918],[100.587954,6.852884],[100.58843,6.851932],[100.589035,6.849963],[100.589313,6.849695],[100.589334,6.84922],[100.589001,6.848363],[100.588906,6.847602],[100.58881,6.846222],[100.58881,6.844984],[100.58881,6.844366],[100.58881,6.842986],[100.588858,6.842129],[100.589239,6.841177],[100.59,6.840559],[100.590666,6.839512],[100.591095,6.838417],[100.591237,6.837656],[100.591713,6.836942],[100.592142,6.835895],[100.592142,6.835181],[100.592132,6.835042],[100.592094,6.834515],[100.591713,6.833801],[100.591047,6.832754],[100.590571,6.831802],[100.590524,6.831136],[100.59019,6.83047],[100.589689,6.830002],[100.589393,6.829262],[100.589381,6.829185],[100.589364,6.82914],[100.589334,6.827805],[100.589381,6.826187],[100.589381,6.825187],[100.589239,6.824235],[100.589239,6.823522],[100.589191,6.822855],[100.588906,6.821808],[100.588512,6.821205],[100.588503,6.821062],[100.588524,6.820873],[100.588096,6.820143],[100.587383,6.819191],[100.587097,6.818525],[100.586907,6.817335],[100.586907,6.816098],[100.586907,6.815051],[100.587097,6.813861],[100.58743,6.8131],[100.587906,6.811815],[100.587954,6.810958],[100.587811,6.810339],[100.587478,6.809626],[100.587002,6.808579],[100.585907,6.808198],[100.58559,6.807944],[100.585403,6.807531],[100.585384,6.807341],[100.585336,6.806675],[100.58586,6.806247],[100.586216,6.806098],[100.586648,6.805744],[100.586823,6.805646],[100.587121,6.805438],[100.587359,6.8052],[100.58738,6.805142],[100.587537,6.804709],[100.587537,6.80407],[100.587525,6.803993],[100.587525,6.803629],[100.587478,6.802915],[100.587145,6.802678],[100.586431,6.802154],[100.585765,6.801773],[100.585241,6.801345],[100.584813,6.800917],[100.584575,6.800108],[100.583956,6.799632],[100.583433,6.799061],[100.582814,6.798775],[100.58191,6.798442],[100.581006,6.798109],[100.580435,6.797681],[100.579959,6.797205],[100.579721,6.796824],[100.579673,6.796205],[100.579752,6.795694],[100.580012,6.795474],[100.580191,6.795176],[100.580204,6.795039],[100.58022,6.794879],[100.58009,6.794585],[100.579507,6.794403],[100.578466,6.794284],[100.577692,6.794046],[100.57677,6.793808],[100.576116,6.793481],[100.575045,6.793213],[100.574302,6.793183],[100.573796,6.792946],[100.573201,6.792618],[100.572695,6.792142],[100.57216,6.791726],[100.571565,6.791339],[100.570554,6.790626],[100.569453,6.790298],[100.568383,6.79009],[100.567282,6.789912],[100.56633,6.789555],[100.565795,6.789287],[100.565498,6.788841],[100.565498,6.788187],[100.565438,6.78777],[100.5652,6.787324],[100.564932,6.78661],[100.564843,6.785629],[100.564784,6.785064],[100.564833,6.784416],[100.564826,6.784399],[100.564903,6.783963],[100.564992,6.783398],[100.564992,6.782952],[100.564903,6.782416],[100.564724,6.782],[100.564278,6.781822],[100.563756,6.781647],[100.563743,6.781643],[100.56291,6.781375],[100.562612,6.780959],[100.562493,6.780394],[100.562612,6.778788],[100.562622,6.778731],[100.562731,6.778044],[100.563118,6.777509],[100.563713,6.776735],[100.564129,6.776349],[100.56633,6.775278],[100.568561,6.774505],[100.569572,6.773791],[100.570108,6.773464],[100.570346,6.773196],[100.570256,6.77278],[100.570138,6.772304],[100.5701,6.772192],[100.570085,6.771113],[100.569781,6.770485],[100.569057,6.769742],[100.56896,6.769698],[100.568948,6.769686],[100.568234,6.769329],[100.568145,6.769151],[100.568293,6.768854],[100.568442,6.768318],[100.568531,6.767723],[100.568621,6.767188],[100.568531,6.766712],[100.568323,6.766058],[100.568264,6.765433],[100.568174,6.764957],[100.567937,6.764422],[100.56752,6.764243],[100.566836,6.763976],[100.566509,6.763767],[100.566152,6.762994],[100.566012,6.762545],[100.566012,6.762318],[100.565992,6.7619],[100.565859,6.761481],[100.565555,6.761252],[100.564888,6.761043],[100.564051,6.760948],[100.563801,6.760892],[100.56324,6.760661],[100.562966,6.760491],[100.562528,6.760262],[100.562261,6.760167],[100.561976,6.760115],[100.561843,6.760091],[100.56131,6.759863],[100.561062,6.759615],[100.561035,6.759551],[100.56091,6.759254],[100.560796,6.759025],[100.560643,6.758663],[100.560586,6.758321],[100.560453,6.758245],[100.56032,6.758226],[100.559939,6.758207],[100.559596,6.758264],[100.559197,6.758321],[100.559061,6.758366],[100.558511,6.758549],[100.557997,6.758644],[100.557236,6.758702],[100.556494,6.758568],[100.555865,6.758378],[100.555047,6.758302],[100.554571,6.758264],[100.554209,6.758188],[100.553562,6.75813],[100.553494,6.758092],[100.553206,6.758092],[100.552433,6.757706],[100.551422,6.75723],[100.550768,6.756635],[100.550292,6.756159],[100.549905,6.755534],[100.549608,6.755059],[100.549518,6.754612],[100.549459,6.754077],[100.549459,6.753631],[100.549459,6.753036],[100.549459,6.751757],[100.549489,6.751073],[100.549459,6.749854],[100.54934,6.749229],[100.548923,6.748694],[100.548775,6.748247],[100.548755,6.747969],[100.548745,6.747831],[100.548745,6.747385],[100.548745,6.74679],[100.548745,6.746522],[100.548656,6.746284],[100.54812,6.745779],[100.547228,6.745481],[100.546644,6.744341],[100.546366,6.744143],[100.545473,6.743964],[100.545176,6.743786],[100.545235,6.743459],[100.545381,6.7434],[100.545681,6.74328],[100.546038,6.742775],[100.546068,6.742061],[100.546395,6.741109],[100.546484,6.740603],[100.546594,6.740077],[100.546533,6.739753],[100.546306,6.739443],[100.546009,6.739116],[100.545711,6.738432],[100.545622,6.737867],[100.545663,6.737456],[100.54554,6.736803],[100.545533,6.736766],[100.545324,6.736201],[100.545265,6.735815],[100.545295,6.735309],[100.545295,6.735077],[100.545295,6.734885],[100.545295,6.734803],[100.545293,6.734774],[100.545116,6.734447],[100.544997,6.734149],[100.544908,6.733881],[100.544908,6.733733],[100.545099,6.733351],[100.545116,6.733316],[100.5452,6.733102],[100.548215,6.731732],[100.548501,6.7312],[100.548644,6.730272],[100.548715,6.729558],[100.548787,6.728987],[100.548858,6.72838],[100.548715,6.727595],[100.548608,6.727167],[100.548323,6.726703],[100.547859,6.72631],[100.547466,6.726024],[100.546931,6.725882],[100.546288,6.725739],[100.545931,6.725489],[100.545539,6.725275],[100.545289,6.725096],[100.545146,6.724918],[100.54511,6.724704],[100.54511,6.724418],[100.545217,6.724204],[100.54561,6.724026],[100.546395,6.723919],[100.547109,6.723776],[100.54843,6.723348],[100.548726,6.723213],[100.54873,6.72315],[100.548965,6.722848],[100.549108,6.722312],[100.549286,6.721527],[100.549393,6.721063],[100.549643,6.720599],[100.550321,6.720278],[100.551249,6.719493],[100.55191,6.718912],[100.552463,6.718672],[100.553034,6.718351],[100.553141,6.718136],[100.553105,6.717672],[100.552855,6.71728],[100.552641,6.716852],[100.552213,6.71653],[100.552154,6.716427],[100.50875,6.72125],[100.396667,6.833333],[100.41629,6.860806],[100.439,6.875],[100.580163,6.875],[100.579895,6.874415]]]}}]}